,lat,lon,postcode,city,state,village,first_postcode_part,second_postcode_part
0,49.28657064156668,-1.9589068955719509,0,0,0,0,0,0
1,49.39264991558483,-2.0035814989699534,0,0,0,0,0,0
2,49.54575991306058,-2.4203884646992315,0,0,0,0,0,0
3,50.924787491583174,0.3939586783679502,TN33 9PG,Rother,England,Penhurst,TN,33
4,50.78961125106168,-1.16889423465078,PO13 9BG,0,England,0,PO,13
5,50.97959062030901,0.013442447612103912,BN8 4QS,Wealden,England,0,BN,8
6,51.00577121581623,0.18309093311301444,TN22 4EH,Wealden,England,Hadlow Down,TN,22
7,51.03171874986808,0.3529750782942209,TN5 7EL,Rother,England,Stonegate,TN,5
8,51.057418333170716,0.5229992772923286,TN18 5AU,Tunbridge Wells,England,Hawkhurst,TN,18
9,51.08288373655098,0.693256512718278,TN30 6ER,0,England,St Michaels,TN,30
10,51.10810034483312,0.8636509452678908,TN26 1NE,0,England,Kingsnorth,TN,26
11,51.133081667546385,1.0342757366309745,TN25 6AZ,Folkestone and Hythe,England,Stowting,TN,25
12,50.189738437276716,-5.0348276099378015,TR2 5JQ,0,England,0,TR,2
13,50.44917672273306,-3.718475055297104,TQ9 6JR,South Hams,England,Dartington,TQ,9
14,50.48058863006279,-3.552918239548592,TQ2 7DG,0,England,0,TQ,2
15,50.78196680844984,-1.8858967559917081,BH22 8UA,0,England,Dudsbury,BH,22
16,50.979019661730355,-0.7066461232446212,GU29 0BU,Chichester,England,Easebourne,GU,29
17,51.006217062874924,-0.5374120921465153,RH14 0EP,Chichester,England,Wisborough Green,RH,14
18,51.03318325458965,-0.3679357881403967,RH13 0PF,0,England,Barns Green,RH,13
19,51.059902766203344,-0.19831254441606025,RH17 6HF,Mid Sussex,England,Handcross,RH,17
20,51.086389918140576,-0.02844955474592068,RH19 4HS,Wealden,England,0,RH,19
21,51.11262951182871,0.1415576060813373,TN7 4DA,Wealden,England,Withyham,TN,7
22,51.13863560778777,0.3118019303336115,TN2 4QU,Tunbridge Wells,England,Pembury,TN,2
23,51.16439328082964,0.4821876047377869,TN12 9NN,Tunbridge Wells,England,0,TN,12
24,51.189916330625636,0.6528078047573291,0,0,England,0,0,0
25,51.2151901066432,0.8235664818256966,TN27 0EY,0,England,0,TN,27
26,51.240228146774825,0.9945569917145712,CT4 7DD,Canterbury,England,Shalmsford Street,CT,4
27,51.26501607639897,1.1656830538303804,0,Canterbury,England,Littlebourne,0,0
28,51.28956039426546,1.3369906436378765,CT13 9FR,0,England,0,CT,13
29,51.31386733224772,1.5085259249158818,0,0,England,0,0,0
30,50.227295696429536,-5.414502266144377,0,0,England,0,0,0
31,50.26103902266411,-5.250854834653666,TR16 4QE,0,England,0,TR,16
32,50.294549354193656,-5.08702484686551,TR4 9DW,0,England,Shortlanesend,TR,4
33,50.32784470202542,-4.922922315020578,TR2 4EL,0,England,Grampound Road,TR,2
34,50.52284721342882,-3.9337291467235778,0,West Devon,England,0,0,0
35,50.5545475800433,-3.768110113223384,TQ13 7HX,Teignbridge,England,0,TQ,13
36,50.586027854227,-3.602225963156904,TQ13 0,Teignbridge,England,0,0,0
37,50.617270005525896,-3.436169779541253,EX6 8SG,Teignbridge,England,Cockwood,EX,6
38,50.79989976545457,-2.43517562541732,DT2 7SJ,0,England,0,DT,2
39,50.82952057909387,-2.2676237904482446,DT11 0DH,0,England,Winterborne Stickland,DT,11
40,50.858915718967744,-2.099816285836841,DT11 8SH,0,England,Tarrant Rushton,DT,11
41,50.88806833411951,-1.9318473874313649,BH21 8NG,0,England,Woodlands,BH,21
42,50.91699406203158,-1.7636250758861511,SP6 2HW,New Forest,England,Frogham,SP,6
43,50.94567631768013,-1.595243885044327,SO43 7JJ,New Forest,England,0,SO,43
44,50.974130483124206,-1.4266115946082518,SO52 9LY,Test Valley,England,North Baddesley,SO,52
45,51.00234024063618,-1.2578229936722505,SO21 1JN,Winchester,England,Owslebury,SO,21
46,51.030320715834954,-1.0887856636245026,SO24 0LJ,Winchester,England,Bramdean,SO,24
47,51.0580558596398,-0.9195946459893864,GU33 6NJ,East Hampshire,England,West Liss,GU,33
48,51.08556054022593,-0.7501573265231739,GU27 3QQ,Chichester,England,Hammer,GU,27
49,51.11281897849701,-0.580568996282536,GU8 4XY,Waverley,England,Dunsfold,GU,8
50,51.139845784193774,-0.41073684811959904,GU6 7SQ,Mole Valley,England,0,GU,6
51,51.16662544952845,-0.24075641964745806,RH6 0EP,Mole Valley,England,0,RH,6
52,51.193172324829845,-0.07053471358719092,RH6 9LD,0,England,Blindley Heath,RH,6
53,51.21947117492872,0.09983248894470148,TN8 6RN,0,England,0,TN,8
54,51.24553608977821,0.2704383725415512,TN11 9PE,Tonbridge and Malling,England,Shipbourne,TN,11
55,51.27135210812318,0.4411869157138321,ME19 6JF,Tonbridge and Malling,England,East Malling,ME,19
56,51.29693305859108,0.612171487507725,ME14 3LR,0,England,Thurnham,ME,14
57,51.32226425512126,0.7832958292685445,ME9 9NX,Swale,England,Bapchild,ME,9
58,51.34735926407972,0.9546534915907656,CT5 4BP,Canterbury,England,Seasalter,CT,5
59,51.372203675865244,1.1261479819387223,CT6 5JH,Canterbury,England,0,CT,6
60,51.39680400173832,1.2978253690256796,CT7 9QR,Thanet,England,Minnis Bay,CT,7
61,51.421166485573686,1.4697319112431697,0,Thanet,England,0,0,0
62,50.39933861340335,-5.139453454966106,TR8 5SE,0,England,0,TR,8
63,50.43270548969226,-4.975035129824848,TR8 4JH,0,England,0,TR,8
64,50.46583796102888,-4.810434742288129,PL30 5NR,0,England,Withiel,PL,30
65,50.49875382903391,-4.645561907941081,PL30 4HY,0,England,Cardinham,PL,30
66,50.53143424987693,-4.48050906821992,0,0,England,0,0,0
67,50.563896778485635,-4.315185615772305,PL17 8LW,0,England,Treburley,PL,17
68,50.59612282678515,-4.149684270195213,PL19 0LB,West Devon,England,Mary Tavy,PL,19
69,50.62812970188947,-3.983914203443676,0,West Devon,England,0,0,0
70,50.659899072931424,-3.8179684111029233,TQ13 8JQ,West Devon,England,0,TQ,13
71,50.691447998101,-3.6517558467298494,EX6 7JX,Teignbridge,England,0,EX,6
72,50.7227584051818,-3.485369779648527,EX1 3EG,Exeter,England,0,EX,1
73,50.7538471023404,-3.3187189473603493,EX11 1LN,East Devon,England,West Hill,EX,11
74,50.875869665753925,-2.650044258380741,BA22 9RR,0,England,Halstock,BA,22
75,50.90578965101672,-2.4823635298266438,DT9 5GF,0,England,Folke,DT,9
76,50.93547598485406,-2.3144710174747862,DT10 1NB,0,England,Hinton St Mary,DT,10
77,50.964936257615385,-2.146321218578485,SP5 5AX,0,England,Ashmore,SP,5
78,50.99415357858749,-1.9780086043627412,SP5 5RB,0,England,0,SP,5
79,51.023143617545756,-1.809440970374356,0,0,England,0,0,0
80,51.051889750182646,-1.6407130478229557,SP5 1JJ,0,England,West Dean,SP,5
81,51.080407390407906,-1.4717324299404502,SO20 6PG,Test Valley,England,0,SO,20
82,51.108680181692755,-1.3025941051661385,SO23 7LS,Winchester,England,Springvale,SO,23
83,51.136723281058394,-1.1332054670694385,0,Winchester,England,0,0,0
84,51.16452060111535,-0.9636617584859422,GU34 2NG,East Hampshire,England,Holybourne,GU,34
85,51.19208704098647,-0.7938701760199429,GU10 3JY,Waverley,England,Wrecclesham,GU,10
86,51.21940678376882,-0.6239262139924366,GU3 1DQ,0,England,Compton,GU,3
87,51.24649446969014,-0.4537368747858985,KT24 6EW,0,England,West Horsley,KT,24
88,51.27333455366777,-0.2833979012167796,KT18 6PN,Mole Valley,England,Headley,KT,18
89,51.299941416051006,-0.11281610423484455,CR5 1ET,London,England,0,CR,5
90,51.32629978489708,0.057912527916033976,TN16 3AB,London,England,0,TN,16
91,51.35242377970714,0.2288813728856896,DA4 0AJ,0,England,Eynsford,DA,4
92,51.378298402983454,0.3999942001491788,DA13 0XB,Gravesham,England,Luddesdown,DA,13
93,51.403937512423106,0.5713445730774541,ME3 9LB,0,England,0,ME,3
94,51.429326386263504,0.7428360220892632,ME12 1LN,Swale,England,Queenborough,ME,12
95,51.454478619456005,0.9145622933547738,0,0,England,0,0,0
96,51.47937976724754,1.086426681538468,0,0,England,0,0,0
97,50.570746821601716,-4.862460614742103,PL27 6QN,0,England,St Minver,PL,27
98,50.6037338092322,-4.697267816843616,PL32 9RJ,0,England,Michaelstow,PL,32
99,50.63648497543602,-4.531893505449611,PL15 8PP,0,England,St Clether,PL,15
100,50.66901791067818,-4.366246898167051,PL15 8TP,0,England,Yeolmbridge,PL,15
101,50.70131398410475,-4.200420897377612,EX20 4JP,West Devon,England,Bratton Clovelly,EX,20
102,50.73339053797204,-4.0343244985258595,EX20 1SW,West Devon,England,0,EX,20
103,50.76522919904306,-3.868050882042752,EX17 5BA,West Devon,England,0,EX,17
104,50.7968470602486,-3.7015088235160656,EX17 5BR,Mid Devon,England,Coleford,EX,17
105,50.828226007421634,-3.5347917791710888,EX5 5JU,Mid Devon,England,Thorverton,EX,5
106,50.85938288306132,-3.367808307093024,0,Mid Devon,England,0,0,0
107,50.890299833514106,-3.200652136969322,EX15 3QU,Mid Devon,England,0,EX,15
108,50.920984967786566,-3.0332780831101145,TA20 3JF,South Somerset,England,0,TA,20
109,50.95144614007065,-2.8656407322797537,TA19 0JT,South Somerset,England,Shepton Beauchamp,TA,19
110,50.981674242830394,-2.69778762879056,0,South Somerset,England,0,0,0
111,51.0116604296959,-2.529766570617481,DT9 4LT,South Somerset,England,Corton Denham,DT,9
112,51.04141256257034,-2.3615321873531547,BA9 9PR,South Somerset,England,Cucklington,BA,9
113,51.07093824623169,-2.1930388860850782,SP3 6BP,0,England,East Knoyle,SP,3
114,51.100220550025426,-2.0243813340973977,SP3 5RU,0,England,Teffont Magna,SP,3
115,51.12927517614277,-1.855467141165463,SP4 6NG,0,England,Middle Woodford,SP,4
116,51.15808546080852,-1.6863912365675642,SP4 0HA,0,England,Newton Tony,SP,4
117,51.18666684990492,-1.5170610263894726,SP11 7NQ,Test Valley,England,Anna Valley,SP,11
118,51.21500294791912,-1.347571699137371,RG28 7RF,Basingstoke and Deane,England,0,RG,28
119,51.24310894339524,-1.177830459874577,RG23 7HT,Basingstoke and Deane,England,Oakley,RG,23
120,51.27096871045312,-1.007932753489583,RG24 7BB,Basingstoke and Deane,England,Up Nately,RG,24
121,51.29859717928272,-0.8377855867358251,GU51 1AA,Hart,England,0,GU,51
122,51.32597849499373,-0.6674846579600638,GU24 9NA,Surrey Heath,England,0,GU,24
123,51.35312732841911,-0.4969367783647924,KT15 3RB,Runnymede,England,0,KT,15
124,51.38002809700187,-0.32623789675101617,KT7 0AJ,Elmbridge,England,0,KT,7
125,51.406695211228474,-0.15529463157553106,CR4 2NE,London,England,0,CR,4
126,51.43311336220478,0.01579682098950045,BR1 5LW,London,England,0,BR,1
127,51.45929669909507,0.18713003238326914,DA1 4PJ,London,England,0,DA,1
128,51.48523018798277,0.3586085622248074,RM16 3LP,0,England,Chadwell St Mary,RM,16
129,51.51092771574829,0.5303261689537908,0,0,England,Coryton,0,0
130,51.53637452475228,0.7021861712221714,SS1 1HP,0,England,0,SS,1
131,50.70868898162502,-4.74920401626532,PL30 5DU,0,England,0,PL,30
132,50.74151118188625,-4.583507225651696,EX23 0NL,0,England,Wainhouse Corner,EX,23
133,50.77411481203651,-4.417536441366484,EX22 6LG,Torridge,England,0,EX,22
134,50.80648119825296,-4.251384749130383,EX22 7YQ,Torridge,England,0,EX,22
135,50.83862771806408,-4.0849609672914635,EX20 3QN,Torridge,England,Petrockstowe,EX,20
136,50.87053595567376,-3.918358461700196,0,Mid Devon,England,0,0,0
137,50.90222303888236,-3.751485829376866,EX17 4TG,North Devon,England,West Worlington,EX,17
138,50.93367081138346,-3.584436714041349,EX16 8BS,Mid Devon,England,0,EX,16
139,50.96489615013674,-3.417119493751997,EX16 7LZ,Mid Devon,England,Huntsham,EX,16
140,50.99588115977893,-3.2496280877596275,TA21 0QL,Somerset West and Taunton,England,Lower Westford,TA,21
141,51.02663396463919,-3.0819172225733538,TA2 8DE,Somerset West and Taunton,England,Monkton Heathfield,TA,2
142,51.05716243380621,-2.9139413955633344,TA3 6ET,Somerset West and Taunton,England,Burrowbridge,TA,3
143,51.08745743719997,-2.7457482491524114,TA11 6PE,South Somerset,England,Compton Dundon,TA,11
144,51.11751010635247,-2.5773856813209943,BA4 6RU,Wells,England,0,BA,4
145,51.147328318082465,-2.4088082327371576,BA4 6BA,Mendip,England,Upton Noble,BA,4
146,51.176919691642844,-2.2399702199948623,BA12 7PU,0,England,0,BA,12
147,51.20626725625196,-2.070966507119883,0,0,England,0,0,0
148,51.23538674664017,-1.9017045174510259,SP3 4HS,0,England,0,SP,3
149,51.26426145937988,-1.7322793790376467,SP4 9PT,0,England,Haxton,SP,4
150,51.292906872447894,-1.5625983101424548,SP11 9EZ,0,England,Chute Standen,SP,11
151,51.32130655116356,-1.3927567000608705,RG20 9SH,Basingstoke and Deane,England,Ashmansworth,RG,20
152,51.349475715714675,-1.2226615646614447,RG19 8AY,Basingstoke and Deane,England,0,RG,19
153,51.37739820154789,-1.0524085516279018,RG7 3WZ,0,England,Mortimer Common,RG,7
154,51.40508897003978,-0.8819044771624773,RG41 4SJ,0,England,Barkham,RG,41
155,51.43253212813134,-0.7112452444000193,RG42 6LY,0,England,Winkfield,RG,42
156,51.459742377378845,-0.5403374726511753,TW19 5NJ,0,England,Wraysbury,TW,19
157,51.486704097571014,-0.3692773174837609,TW5 0SB,London,England,0,TW,5
158,51.51343172944836,-0.19797120413833488,W11 3EE,London,England,0,W,11
159,51.53990992698657,-0.02651553751755646,E9 5HR,London,England,0,E,9
160,51.56615286912866,0.1451834483417269,RM8 1HB,London,England,0,RM,8
161,51.5921454853619,0.31702910238041376,CM13 3EQ,0,England,Little Warley,CM,13
162,51.61790169186409,0.4891153788526624,CM11 1RJ,0,England,Ramsden Bellhouse,CM,11
163,51.64340669494354,0.6613453838016768,CM3 6LU,0,England,0,CM,3
164,50.879190942113034,-4.469057867986128,EX23 9RP,0,England,Kilkhampton,EX,23
165,50.91162793335036,-4.302579431709903,EX22 7UW,Torridge,England,0,EX,22
166,50.943844710845916,-4.1358271994171245,EX38 8,Torridge,England,0,0,0
167,50.975822816052315,-3.9688947229601834,EX37 9BG,Torridge,England,High Bickington,EX,37
168,51.00757941177043,-3.8016904201835775,0,North Devon,England,0,0,0
169,51.039096299362676,-3.634308122904068,EX36 3PE,North Devon,England,West Anstey,EX,36
170,51.07039039037927,-3.466656028532374,TA22 9NU,Somerset West and Taunton,England,0,TA,22
171,51.101443747555926,-3.2988282465049723,TA4 3PL,Somerset West and Taunton,England,Elworthy,TA,4
172,51.13226451059383,-3.1307794152192296,TA5 1DF,Sedgemoor,England,0,TA,5
173,51.16286056352682,-2.962463942326085,TA7 8PH,Sedgemoor,England,Puriton,TA,7
174,51.193222753619814,-2.7939295686807517,BA6 9TX,Mendip,England,Westhay,BA,6
175,51.223342190196504,-2.6252242926091087,BA5 3AA,Mendip,England,West Horrington,BA,5
176,51.253226765039386,-2.4563025655355606,BA3 5,Mendip,England,Highbury,0,0
177,51.28288411192346,-2.2871186132272414,BA11 6AD,Mendip,England,Rode,BA,11
178,51.312297219751365,-2.117767497144292,BA14 6NJ,0,England,Keevil,BA,14
179,51.34148185591786,-1.9481564535130167,SN10 3HX,0,England,Etchilhampton,SN,10
180,51.3704212771552,-1.7783808098668323,SN8 4JW,0,England,Oare,SN,8
181,51.39913099365881,-1.608347595957397,SN8 3JA,0,England,Chisbury,SN,8
182,51.42759453139363,-1.4381524026026489,RG20 8NL,0,England,Hoe Benham,RG,20
183,51.455827142313936,-1.2677020557764456,RG18 9TQ,0,England,Hermitage,RG,18
184,51.48381262300773,-1.0970924067113046,RG8 8JT,0,England,Pangbourne,RG,8
185,51.51156596615966,-0.9262300803465428,RG9 4JT,South Oxfordshire,England,Harpsden,RG,9
186,51.539071240357714,-0.7552111853789352,SL6 6NJ,0,England,0,SL,6
187,51.56634317800179,-0.5839421485038441,SL2 4HA,0,England,0,SL,2
188,51.59336612104325,-0.4125193328500531,HA5 2QB,London,England,0,HA,5
189,51.62015454059547,-0.2408489697068335,NW7 4JY,London,England,0,NW,7
190,51.646693053322466,-0.06902767352173023,EN1 1LH,London,England,0,EN,1
191,51.672995868063296,0.10303851693885828,CM16 7EU,Epping Forest,England,Theydon Bois,CM,16
192,51.699047877529104,0.2752527391030754,CM5 9RJ,Epping Forest,England,High Ongar,CM,5
193,51.724863027310896,0.44770914379741744,CM1 3AT,Chelmsford,England,0,CM,1
194,51.75042648748621,0.6203106236015444,CM9 6QY,0,England,Ulting,CM,9
195,51.775751939438784,0.7931515159600427,CM9 8EL,0,England,Tolleshunt D'Arcy,CM,9
196,51.80082483191594,0.9661344719601408,CO5 8TE,0,England,0,CO,5
197,51.0167521806889,-4.354005920850752,EX39 5DZ,Torridge,England,Bucks Mills,EX,39
198,51.04903950855113,-4.186924171071376,EX39 1LZ,0,England,0,EX,39
199,51.081087773363,-4.019660642289339,EX32 8RB,North Devon,England,Goodleigh,EX,32
200,51.11291417305722,-3.8521235725644143,EX32 7QP,North Devon,England,0,EX,32
201,51.144500466472394,-3.6844069824116623,TA24 7JY,Somerset West and Taunton,England,0,TA,24
202,51.175863599879655,-3.5164188879726965,0,Somerset West and Taunton,England,0,0,0
203,51.20698559392165,-3.3482535894912053,TA23 0BA,Somerset West and Taunton,England,0,TA,23
204,51.23787460372099,-3.1798656369413885,0,0,England,0,0,0
205,51.26853852830512,-3.0112093479291246,TA8 2LN,Sedgemoor,England,Berrow,TA,8
206,51.298968192172346,-2.842332562063236,BS25 1DJ,0,England,Winscombe,BS,25
207,51.32915468232727,-2.673283378354684,BS40 6PT,0,England,Nempnett Thrubwell,BS,40
208,51.35910590556439,-2.504016158664331,BS39 4NS,0,England,Hunstrete,BS,39
209,51.38882951022804,-2.334485037598274,BA2 6,0,England,Bathampton,0,0
210,51.41830844471559,-2.1647852747438137,SN13 9PZ,0,England,Gastard,SN,13
211,51.44755850921178,-1.9948239185375796,0,0,England,0,0,0
212,51.47656292042023,-1.8246964967102968,SN4 9PE,0,England,Winterbourne Bassett,SN,4
213,51.505337220879326,-1.6543098498132467,SN8 2LF,0,England,0,SN,8
214,51.53386489701209,-1.4837597709206398,RG17 7UU,0,England,0,RG,17
215,51.56216123266245,-1.3129528954102934,OX11 0PH,Vale of White Horse,England,Chilton,OX,11
216,51.59020998537322,-1.1419852788177898,OX10 9EJ,South Oxfordshire,England,0,OX,10
217,51.61802617925914,-0.9707633541062288,OX49 5HF,South Oxfordshire,England,Cookley Green,OX,49
218,51.64559384436996,-0.7993834363091002,HP14 3AA,0,England,0,HP,14
219,51.67292774406963,-0.6277517587813984,HP7 0HR,0,England,0,HP,7
220,51.70001218228841,-0.4559648930081472,WD4 8QN,Dacorum,England,0,WD,4
221,51.72686166063157,-0.2839288755905385,AL2 1JW,St. Albans,England,London Colney,AL,2
222,51.75346075826904,-0.11174053133679608,SG13 8PY,East Hertfordshire,England,Little Berkhamsted,SG,13
223,51.77982371405357,0.060694297005510225,SG12 8LF,East Hertfordshire,England,Eastwick,SG,12
224,51.80593538373926,0.2332785345155525,CM22 7DB,Uttlesford,England,0,CM,22
225,51.83180974244653,0.4061065293519493,CM6 3PL,Uttlesford,England,0,CM,6
226,51.85743192384278,0.5790809597742171,CM77 8HS,0,England,Black Notley,CM,77
227,51.882815638350934,0.7522963618544871,CO6 1JA,0,England,Great Tey,CO,6
228,51.90794629886509,0.925655170406792,CO4 0HL,0,England,0,CO,4
229,51.93283047981022,1.0992039256750152,CO11 2QN,0,England,Mistley Heath,CO,11
230,51.9574744856538,1.2729893645964836,IP9 1QD,Babergh,England,Shotley Gate,IP,9
231,51.121853753381814,-4.405666092802581,0,0,England,0,0,0
232,51.15421192646424,-4.2382537532636135,EX33 1PA,North Devon,England,0,EX,33
233,51.18633064506415,-4.070658085292783,EX34 9TB,North Devon,England,Berrynarbor,EX,34
234,51.21822714237828,-3.902787146552481,EX31 4QT,North Devon,England,Martinhoe,EX,31
235,51.249883134527295,-3.7347351468598564,0,0,England,0,0,0
236,51.28131560263442,-3.566409920462009,0,0,England,0,0,0
237,51.31250652505578,-3.3979059590340537,CF72 9JY,0,Wales,0,CF,72
238,51.4349474176702,-2.7215647548809017,BS48 1LH,Bristol,England,0,BS,48
239,51.464965576770474,-2.5519508215225977,0,Bristol,England,0,0,0
240,51.49475572585757,-2.3820712954092853,SN14 8,0,England,Hinton,0,0
241,51.524300772632635,-2.212021634951656,SN14 6,0,England,Grittleton,0,0
242,51.55361655019685,-2.041708700115004,SN15 5,0,England,Little Somerford,0,0
243,51.58268623503499,-1.8712282195443124,SN5 4AT,0,England,Purton,SN,5
244,51.61152540215376,-1.7004868438965766,SN6 7GQ,0,England,Sevenhampton,SN,6
245,51.640117498245104,-1.5295805692399724,SN7 8HE,Vale of White Horse,England,Shellingford,SN,7
246,51.66847783916664,-1.3584158396501846,OX13 6QL,Vale of White Horse,England,Marcham,OX,13
247,51.69659014322813,-1.1870889157243183,OX44 9NH,South Oxfordshire,England,Toot Baldon,OX,44
248,51.724469466096906,-1.0155060377311362,OX9 2PA,South Oxfordshire,England,Tiddington,OX,9
249,51.75209979909794,-0.8437637278200719,HP17 9UD,0,England,0,HP,17
250,51.7794959366805,-0.6717680252756573,HP23 6QS,Dacorum,England,0,HP,23
251,51.80664214456832,-0.4996157107391755,HP2 6JA,Dacorum,England,Great Gaddesden,HP,2
252,51.83355295497854,-0.3272126253818415,AL5 5DX,St Albans,England,Allied Business Park,AL,5
253,51.86021290940303,-0.1546558051932938,SG3 6RR,East Hertfordshire,England,Datchworth,SG,3
254,51.88663627682667,0.01814910385132508,SG11 1TH,East Hertfordshire,England,Puckeridge,SG,11
255,51.91280787586405,0.19110481364072826,CM24 8XW,Uttlesford,England,Bentfield,CM,24
256,51.938741711282006,0.3643058704308694,CM6 3QF,Uttlesford,England,0,CM,6
257,51.964422880157,0.5376547372989449,CM7 4EH,0,England,Wethersfield,CM,7
258,51.989865122066526,0.7112461497212793,CO10 7LZ,0,England,Alphamstone,CO,10
259,52.01505381387225,0.8849823253559381,CO10 5JL,Babergh,England,Polstead,CO,10
260,52.03999554275566,1.0589098998278808,IP8 3QA,Babergh,England,Chattisham,IP,8
261,52.06469662542139,1.2330757068984377,IP5 1HW,East Suffolk,England,Rushmere St Andrew,IP,5
262,52.08914960946307,1.4074299932230447,0,East Suffolk,England,0,0,0
263,51.3235163119641,-3.953682136657077,0,0,England,0,0,0
264,51.35524229674034,-3.785293610852975,0,0,England,0,0,0
265,51.540718395513295,-2.7700694143701545,0,0,Wales,0,0,0
266,51.57080377898542,-2.6001075453838807,0,0,England,Olveston,0,0
267,51.60066076018708,-2.4298783768785053,GL12 8AY,0,England,0,GL,12
268,51.63027220593131,-2.25947756678435,GL8 8,Cotswold,England,Leighterton,0,0
269,51.65965398236242,-2.088811785912466,SN16 9SW,Cotswold,England,0,SN,16
270,51.68878922555553,-1.917976964539276,GL7 5,Cotswold,England,South Cerney,0,0
271,51.7176935431111,-1.7468795627321907,GL7 4,Cotswold,England,0,0,0
272,51.746350341800145,-1.575615780291499,0,West Oxfordshire,England,0,0,0
273,51.774774969618136,-1.4040918692832105,OX29 4BG,West Oxfordshire,England,Eynsham,OX,29
274,51.80295110545304,-1.2324042961250783,OX3 9TS,Oxford,England,0,OX,3
275,51.83089383664785,-1.0604591076718086,HP18 9XE,Cherwell,England,Piddington,HP,18
276,51.858587115614995,-0.8883530339689218,HP22 4AE,0,England,0,HP,22
277,51.886045768010796,-0.7159919194987259,LU7 0PA,0,England,Wing,LU,7
278,51.913254021166175,-0.5434727548598782,LU5 6JH,0,England,0,LU,5
279,51.94022643803033,-0.3707011850499357,LU2 8NQ,North Hertfordshire,England,Lilley,LU,2
280,51.96694752223216,-0.19777445806206048,SG6 2SG,North Hertfordshire,England,0,SG,6
281,51.99343157300761,-0.02459802234347909,SG9 0PS,East Hertfordshire,England,Buckland,SG,9
282,52.01966337164824,0.14873061996102552,CB11 4UW,Uttlesford,England,Littlebury Green,CB,11
283,52.04565695268463,0.32230621397187664,CB10 2UA,Uttlesford,England,Radwinter,CB,10
284,52.071397376420485,0.4960310067200395,CB9 7QN,West Suffolk,England,Kedington,CB,9
285,52.0968984117037,0.6699999338646965,CO10 7RP,Babergh,England,Glemsford,CO,10
286,52.12214539918338,0.8441149950231669,CO10 9FF,Babergh,England,Preston St. Mary,CO,10
287,52.147144938839,1.018422921564247,IP14 2HJ,Mid Suffolk,England,Battisford,IP,14
288,52.17190335965223,1.1929706444497077,IP14 6EF,Mid Suffolk,England,Helmingham,IP,14
289,52.19641318956321,1.3677082958818785,IP13 9LU,East Suffolk,England,Parham,IP,13
290,52.220667236069616,1.542585782974511,IP16 4TL,East Suffolk,England,0,IP,16
291,51.55457861064736,-3.3284860672807297,CF38 2PB,0,Wales,Llantwit Fardre,CF,38
292,51.58544789826677,-3.1588002502324586,CF83 8NQ,0,Wales,Machen,CF,83
293,51.70654812176927,-2.4779097800700147,GL13 9,0,England,Sharpness,0,0
294,51.73622625769543,-2.3071565487937717,GL10 3,0,England,Leonard Stanley,0,0
295,51.76567432330963,-2.136136634731165,GL6 7BX,0,England,Whiteway,GL,6
296,51.79487541408342,-1.9649461705179163,0,Cotswold,England,Rendcomb,0,0
297,51.823845170338494,-1.793491424925304,GL54 3LY,Cotswold,England,Farmington,GL,54
298,51.85256695873209,-1.6218688022348795,OX7 6EY,West Oxfordshire,England,Shipton-under-Wychwood,OX,7
299,51.881056159523865,-1.4499843617839578,OX7 3,West Oxfordshire,England,0,0,0
300,51.90929641198817,-1.2779347765814424,OX25 4NB,Cherwell,England,Kirtlington,OX,25
301,51.93730283526856,-1.1056258993366008,OX27 9BJ,Cherwell,England,Stratton Audley,OX,27
302,51.965059342674465,-0.9331546687828834,MK18 2HY,0,England,Adstock,MK,18
303,51.99258079119284,-0.7604267338567764,MK3 6AF,0,England,0,MK,3
304,52.0198513695725,-0.5875392959274958,MK43 0UJ,0,England,Ridgmont,MK,43
305,52.04688567161696,-0.4143978030632073,MK45 4DJ,0,England,Clophill,MK,45
306,52.07366816290429,-0.2410997160951109,SG18 8TQ,0,England,0,SG,18
307,52.10021317304214,-0.06755028517482882,0,South Cambridgeshire,England,0,0,0
308,52.12650544581285,0.1061527726635805,CB22 7PN,South Cambridgeshire,England,Newton,CB,22
309,52.15255904562997,0.2801044021845516,CB21 4HF,South Cambridgeshire,England,0,CB,21
310,52.17835899583965,0.454206633495755,CB8 9PG,East Cambridgeshire,England,Kirtling Green,CB,8
311,52.203919094677886,0.6285546032304966,IP29 5RG,West Suffolk,England,Chevington,IP,29
312,52.229224646398286,0.8030500920671483,IP30 9JJ,West Suffolk,England,Rougham,IP,30
313,52.25428226382041,0.977739927487138,IP14 4LA,Mid Suffolk,England,Haughley Green,IP,14
314,52.279098288243425,1.1526711380353345,IP23 7JU,Mid Suffolk,England,Occold,IP,23
315,52.30366522784682,1.327793740973201,IP13 8EL,Mid Suffolk,England,0,IP,13
316,52.32797587093385,1.5030575266761943,IP19 9HH,East Suffolk,England,0,IP,19
317,52.35203657007926,1.6785094801069609,NR34 7JH,East Suffolk,England,South Cove,NR,34
318,51.62894023257508,-3.5482430610609508,CF32 7RG,0,Wales,Nant-y-moel,CF,32
319,51.660105158045816,-3.3784869526476187,0,0,Wales,0,0,0
320,51.691043490918744,-3.20845557420636,CF81 9,0,Wales,Aberbargoed,0,0
321,51.72174596349166,-3.0381971635933502,0,0,Wales,0,0,0
322,51.75220357236702,-2.867760225980664,NP15 2HU,0,Wales,Raglan,NP,15
323,51.78242428487493,-2.6970987617305013,NP25 4AP,0,Wales,Penallt,NP,25
324,51.812415808114,-2.526166537413958,GL14 3HX,Forest of Dean,England,Ruspidge,GL,14
325,51.84216092653553,-2.355059612120459,GL2 8JS,Forest of Dean,England,0,GL,2
326,51.87167557275678,-2.1836842762691773,GL3 3NQ,0,England,0,GL,3
327,51.900942801450775,-2.01213686558325,GL54 4ET,0,England,0,GL,54
328,51.929978285788486,-1.8403234568297924,GL54 5UB,Cotswold,England,Guiting Power,GL,54
329,51.95876535211947,-1.6683406595212686,GL56 0NT,Cotswold,England,Evenlode,GL,56
330,51.987319413094184,-1.4960943395456985,OX15 5BS,Cherwell,England,Hook Norton,OX,15
331,52.015624068180685,-1.3236813772743394,OX17 3EL,Cherwell,England,Adderbury,OX,17
332,52.04369446844838,-1.151007430538,NN13 6GF,0,England,0,NN,13
333,52.071514487912204,-0.9781696475508092,NN12 8XN,0,England,0,NN,12
334,52.099099015013635,-0.8050734809580555,MK19 7AX,0,England,Hanslope,MK,19
335,52.126432199729244,-0.6318163437138681,MK16 9JZ,0,England,Astwood,MK,16
336,52.15352866683934,-0.4583034861994395,MK41 7LA,0,England,0,MK,41
337,52.18037284368249,-0.28463258291988885,PE19 6YF,0,England,0,PE,19
338,52.20697909035902,-0.11070868496156402,CB23 3PJ,South Cambridgeshire,England,Caxton,CB,23
339,52.23333211295478,0.06337027489475476,CB3 0JN,South Cambridgeshire,England,Madingley,CB,3
340,52.2594460058858,0.23769944183914604,CB25 9HF,East Cambridgeshire,England,0,CB,25
341,52.28530575535514,0.4121806281770943,CB8 7LT,East Cambridgeshire,England,0,CB,8
342,52.31092518910476,0.5869091723094353,IP28 6DF,West Suffolk,England,Icklingham,IP,28
343,52.33628957480885,0.7617866350752521,IP24 2PN,West Suffolk,England,0,IP,24
344,52.36140553816927,0.9368599404385242,IP22 1FE,West Suffolk,England,Hopton,IP,22
345,52.38627943284313,1.112176214911109,IP22 4SY,South Norfolk,England,0,IP,22
346,52.4109037471413,1.2876853603246297,IP20 9NL,South Norfolk,England,Starston,IP,20
347,52.43527125006675,1.4633370498084852,NR35 1PH,East Suffolk,England,0,NR,35
348,52.45938830660719,1.6391783657653365,NR34 7QG,East Suffolk,England,Barnby,NR,34
349,51.73437389956623,-3.5988214597092414,0,0,Wales,0,0,0
350,51.765608546673356,-3.4287203662075623,0,0,Wales,0,0,0
351,51.796616222615604,-3.258342229880211,NP22 4EP,0,Wales,0,NP,22
352,51.82738763635252,-3.087735388957923,NP7 0BL,0,Wales,Gilwern,NP,7
353,51.85791376160004,-2.9169484510138517,NP7 8NW,0,Wales,Llangattock Lingoed,NP,7
354,51.88820258094525,-2.745935325213192,HR2 8RA,0,Wales,Skenfrith,HR,2
355,51.91826181629593,-2.5746496852585117,0,0,England,0,0,0
356,51.94807421062802,-2.4031877918786617,GL18 1,Forest of Dean,England,0,0,0
357,51.9776557299892,-2.2314557442525564,GL19 4LX,Malvern Hills,England,0,GL,19
358,52.00698938805828,-2.059550081919016,GL20 8NE,0,England,Teddington,GL,20
359,52.03609089098365,-1.88737668893156,0,Wychavon,England,Broadway,0,0
360,52.064943524612474,-1.7150323807835983,0,Cotswold,England,Ebrington,0,0
361,52.093562734112986,-1.5424228291917759,OX15 5JL,Stratford-on-Avon,England,Whatcote,OX,15
362,52.12193207895322,-1.3696451226615047,OX17 1BP,Cherwell,England,Mollington,OX,17
363,52.15006674225419,-1.196604723410469,NN11 3PA,0,England,Eydon,NN,11
364,52.17795055854384,-1.023398989927123,NN12 8LB,0,England,Fosters Booth,NN,12
365,52.20559844784246,-0.8499331778184379,NN4 6BW,0,England,Great Houghton,NN,4
366,52.232994521163214,-0.6763049124388926,NN29 7PA,0,England,Bozeat,NN,29
367,52.26015343438608,-0.5024192457232683,0,0,England,Melchbourne,0,0
368,52.28705957642032,-0.32837406668786984,PE28 0BY,Huntingdonshire,England,Dillington,PE,28
369,52.31372733798037,-0.1540742265821208,PE29 2PB,Huntingdonshire,England,Godmanchester,PE,29
370,52.34014138726743,0.020382125207461136,PE28 3LW,Huntingdonshire,England,Bluntisham,PE,28
371,52.366315848819745,0.1950903350802904,CB6 3QB,East Cambridgeshire,England,Wilburton,CB,6
372,52.392235671510754,0.3699519966588831,CB7 5RH,East Cambridgeshire,England,0,CB,7
373,52.41791471270661,0.5450626509072592,IP27 9EJ,West Suffolk,England,0,IP,27
374,52.44333820331725,0.7203236379227556,IP24 1LX,Breckland,England,0,IP,24
375,52.468512781968975,0.8957819785228966,NR16 2RB,Breckland,England,Illington,NR,16
376,52.49344481471724,1.0714848975716855,NR17 1PZ,Breckland,England,0,NR,17
377,52.51812676989586,1.2473821809807206,0,South Norfolk,England,Tasburgh,0,0
378,52.542551397100745,1.4234233841241952,NR15 1DD,South Norfolk,England,Thurton,NR,15
379,52.56672507377332,1.5996556872224177,0,Broadland,England,0,0,0
380,52.59065390270733,1.7761264678359463,NR30 5JY,0,England,0,NR,30
381,51.77646396841608,-3.989879996400977,SA18 2RB,0,Wales,0,SA,18
382,51.80824756995997,-3.819851936003268,SA9 2WH,0,Wales,Cefn-bryn-brain,SA,9
383,51.83978758235283,-3.649637260689365,0,0,Wales,0,0,0
384,51.87109225429853,-3.479189983228709,LD3 8NL,0,Wales,0,LD,3
385,51.90216957581982,-3.3084638739793615,LD3 7YN,0,Wales,Talybont on Usk,LD,3
386,51.93301023242035,-3.1375073718760467,0,0,Wales,0,0,0
387,51.96360517481261,-2.9663691872421696,HR2 0QS,0,England,0,HR,2
388,51.993962400890894,-2.7950031377100526,HR2 9DA,0,England,Didley,HR,2
389,52.02408964742129,-2.6233628037624817,HR1 4LP,0,England,Mordiford,HR,1
390,52.053969615704524,-2.4515446484847314,HR8 2PU,0,England,0,HR,8
391,52.08361830535029,-2.279454579107513,WR8 0DX,Malvern Hills,England,Hanley Swan,WR,8
392,52.113018688844434,-2.107189339724385,0,Wychavon,England,0,0,0
393,52.142186505442965,-1.9346546209543571,WR11 8SS,Wychavon,England,Church Lench,WR,11
394,52.17110500029288,-1.7619474450329582,CV37 9SJ,Stratford-on-Avon,England,0,CV,37
395,52.19978965120915,-1.5889732887716557,CV35 9QA,Stratford-on-Avon,England,0,CV,35
396,52.228223977463216,-1.4158294495933508,CV47 2SZ,Stratford-on-Avon,England,Deppers Bridge,CV,47
397,52.25642319435522,-1.2424211933560447,CV23 8BD,0,England,Flecknoe,CV,23
398,52.2843710967307,-1.0688460896279943,0,0,England,Long Buckby,0,0
399,52.31208263631499,-0.8950091962186872,NN6 9AP,0,England,0,NN,6
400,52.33954188496378,-0.7210083517105893,NN9 5BN,0,England,Little Harrowden,NN,9
401,52.366763529781494,-0.5467484088203834,NN14 4DF,0,England,0,NN,14
402,52.393731921055355,-0.3723274719253624,PE28 5LR,Huntingdonshire,England,Old Weston,PE,28
403,52.42046148023724,-0.19765019165395567,PE28 2QZ,Huntingdonshire,England,Woodwalton,PE,28
404,52.4469368374525,-0.022814934870368613,PE28 2UF,Huntingdonshire,England,0,PE,28
405,52.473172147483396,0.15227384683046816,PE15 0JX,Fenland,England,Manea,PE,15
406,52.49915232168414,0.32751752749407803,CB6 1EL,East Cambridgeshire,England,0,CB,6
407,52.52489124716533,0.503011851456056,0,King's Lynn and West Norfolk,England,0,0,0
408,52.55037411788477,0.6786579371559349,IP26 5JX,Breckland,England,0,IP,26
409,52.575607585436046,0.8545029026419658,0,Breckland,England,Ovington,0,0
410,52.60059802831412,1.0305940715218005,NR9 4EN,Breckland,England,0,NR,9
411,52.62533789476542,1.2068811132896242,NR4 7TY,South Norfolk,England,Colney,NR,4
412,52.64981991487053,1.3833134650476964,0,Broadland,England,New Rackheath,0,0
413,52.674050478565825,1.5599384052178784,NR29 3BW,0,England,Oby,NR,29
414,52.69803570059813,1.7368034110339667,NR29 3NR,0,England,Scratby,NR,29
415,51.84963333568192,-4.2117122207723785,SA32 8EN,0,Wales,0,SA,32
416,51.88171379340659,-4.041624002918471,SA19 6SG,0,Wales,Llangathen,SA,19
417,51.913568530435676,-3.8712518944194456,SA19 6YN,0,Wales,Bethlehem,SA,19
418,51.945179267254616,-3.700691548784315,LD3 8YF,0,Wales,0,LD,3
419,51.97655426834254,-3.5298968881144828,LD3 8HF,0,Wales,0,LD,3
420,52.00770153906321,-3.3588215903725867,LD3 0UH,0,Wales,Talachddu,LD,3
421,52.03861174134621,-3.1875141955260666,LD3 0SL,0,Wales,Three Cocks,LD,3
422,52.069275802782926,-3.0160235169972576,HR3 6AG,0,England,Dorstone,HR,3
423,52.09970173662518,-2.844303280548778,HR4 7HQ,0,England,Mansel Lacy,HR,4
424,52.1298972945464,-2.6723069730913465,HR1 3DA,0,England,Marden,HR,1
425,52.15984513597164,-2.5001312607835957,HR7 4LD,0,England,0,HR,7
426,52.18956129420429,-2.3276818581987078,WR6 5LX,Malvern Hills,England,Cotheridge,WR,6
427,52.219028700337496,-2.155055714724217,WR3 8SX,Wychavon,England,Tibberton,WR,3
428,52.24826312686561,-1.9821583268222116,B96 6JP,0,England,Feckenham,B,96
429,52.27724777803665,-1.8090869242319183,B80 7EH,Stratford-on-Avon,England,Oldberrow,B,80
430,52.30599816444167,-1.6357467881242185,CV35 7PE,0,England,Hatton Park,CV,35
431,52.33449776495782,-1.4622354256234922,CV33 9BT,0,England,Weston under Wetherley,CV,33
432,52.3627618271924,-1.2884579054797756,CV22 7EG,0,England,Bilton,CV,22
433,52.390774106112175,-1.114512009147515,NN6 6JT,0,England,Clay Coton,NN,6
434,52.418549585274064,-0.9403025958776776,LE16 9RY,0,England,Kelmarsh,LE,16
435,52.44607229718117,-0.7659277183095381,0,0,England,Rushton,0,0
436,52.47335696028744,-0.5912920291680116,NN14 3ES,0,England,Brigstock,NN,14
437,52.5003878860645,-0.4164938490426055,PE8 6TG,0,England,Warmington,PE,8
438,52.52717952682524,-0.2414376271546062,PE7 3GX,Huntingdonshire,England,Farcet,PE,7
439,52.553716474426956,-0.06622194871950494,PE7 2HJ,Fenland,England,0,PE,7
440,52.5800129140181,0.10924893747191028,0,Fenland,England,0,0,0
441,52.60605371924306,0.28487618499222744,PE14 8QQ,King's Lynn and West Norfolk,England,0,PE,14
442,52.63185280707743,0.4607557423593242,0,King's Lynn and West Norfolk,England,Shouldham,0,0
443,52.657395334338005,0.6367885054366791,PE37 7QE,Breckland,England,0,PE,37
444,52.682687965628546,0.8130216898815932,NR19 2HX,Breckland,England,Great Fransham,NR,19
445,52.70773709192454,0.9895027184382222,NR20 4NY,Breckland,England,Swanton Morley,NR,20
446,52.73253514127421,1.1661811436846783,NR10 4PP,Broadland,England,Swannington,NR,10
447,52.757074824133745,1.3430062839331234,NR10 5RZ,0,England,Badersfield,NR,10
448,52.78136254297575,1.5200255161920857,NR12 9HA,North Norfolk,England,Brumstead,NR,12
449,52.80540442453957,1.6972864177678817,0,0,England,0,0,0
450,51.82382240667736,-4.943456361199903,SA62 4DP,0,Wales,Crundale,SA,62
451,51.85690829573676,-4.7739892954400895,SA66 7HU,0,Wales,0,SA,66
452,51.889770823937944,-4.60423238028097,SA34 0EY,0,Wales,Llanboidy,SA,34
453,51.9223911391031,-4.434280867994309,SA33 6NP,0,Wales,0,SA,33
454,51.954786725052564,-4.264041535994909,SA32 7DJ,0,Wales,Peniel,SA,32
455,51.986938993318546,-4.093609936305572,SA32 7BJ,0,Wales,0,SA,32
456,52.01886517273871,-3.9228926120784062,SA19 8UN,0,Wales,0,SA,19
457,52.05054694011361,-3.751985412691496,SA20 0LT,0,Wales,Cynghordy,SA,20
458,52.08199257574915,-3.580842169249548,LD4 4DW,0,Wales,0,LD,4
459,52.11321010040066,-3.4094164669753617,0,0,Wales,0,0,0
460,52.14419015230464,-3.237756947197082,LD2 3UY,0,Wales,0,LD,2
461,52.17492363581348,-3.065912526784061,HR3 6JW,0,Wales,Michaelchurch on Arrow,HR,3
462,52.2054185795866,-2.893836839291498,HR6 9EE,0,England,Bearwood,HR,6
463,52.23568275025408,-2.721483277704655,HR6 0DQ,0,England,Brimfield,HR,6
464,52.26569876516355,-2.5489487119723933,WR15 8QD,Malvern Hills,England,0,WR,15
465,52.29548269144448,-2.3761386632996144,WR6 6DD,Malvern Hills,England,The Common Abberley,WR,6
466,52.32501741859654,-2.203150287107256,DY10 4JD,Wychavon,England,0,DY,10
467,52.35431875248325,-2.02988888497652,B60 1JJ,0,England,Lickey End,B,60
468,52.38336985625417,-1.856451894912332,B90 1PR,0,England,Tidbury Green,B,90
469,52.41218627340599,-1.6827444017079483,B92 0LJ,0,England,0,B,92
470,52.44075144222303,-1.5088641229738269,CV6 4DU,Coventry,England,0,CV,6
471,52.469080642748054,-1.334715929602019,0,0,England,0,0,0
472,52.49715758987158,-1.1603978157404533,LE17 5LY,Harborough,England,Gilmorton,LE,17
473,52.5249972991091,-0.9858144413186756,LE8 0,Harborough,England,Smeeton Westerby,0,0
474,52.55258376341505,-0.8110640738626961,LE16 8DE,Harborough,England,Blaston,LE,16
475,52.57993173271841,-0.6360511653300647,LE15 9EB,0,England,0,LE,15
476,52.6070254794804,-0.4608742533750743,PE8 6NN,0,England,Wittering,PE,8
477,52.63387948699904,-0.2854375850236589,PE6 7AW,0,England,Glinton,PE,6
478,52.660478308670356,-0.10983996471783568,PE6 0PQ,Peterborough,England,0,PE,6
479,52.686836160131406,0.06601456235645661,PE13 4QA,Fenland,England,0,PE,13
480,52.71293787712524,0.2420269284009974,PE14 7QS,King's Lynn and West Norfolk,England,Walpole Highway,PE,14
481,52.73879740661321,0.4182932869289724,PE30 4LR,King's Lynn and West Norfolk,England,0,PE,30
482,52.76439986808136,0.5947143103074078,0,King's Lynn and West Norfolk,England,0,0,0
483,52.78975193918637,0.7713373121821493,NR21 7ET,North Norfolk,England,West Raynham,NR,21
484,52.81486002342545,0.948209814827996,NR21 0EY,North Norfolk,England,0,NR,21
485,52.83971652853697,1.1252812534071526,NR11 7BW,North Norfolk,England,Saxthorpe,NR,11
486,52.86431414524298,1.3025008269220677,0,North Norfolk,England,0,0,0
487,52.888659288593686,1.4799160113542125,NR12 0EZ,North Norfolk,England,Bacton,NR,12
488,52.912758097360296,1.65757448448309,0,0,England,0,0,0
489,51.928661977369366,-4.997393354809706,SA62 5SZ,0,Wales,Letterston,SA,62
490,51.96182150292211,-4.827588796165046,0,0,Wales,0,0,0
491,51.99475731567418,-4.657492523887894,SA37 0HP,0,Wales,Blaenffos,SA,37
492,52.02745051869646,-4.487199982158807,SA38 9RG,0,Wales,0,SA,38
493,52.05991863216383,-4.3166177629556435,SA44 4LG,0,Wales,Pentrellwyn,SA,44
494,52.09214302328142,-4.145841612516636,SA40 9QJ,0,Wales,Llanwnnen,SA,40
495,52.124140956822,-3.974777886953056,0,0,Wales,0,0,0
496,52.15589406569425,-3.803522632159948,0,0,Wales,0,0,0
497,52.18741064608303,-3.632029587911024,LD5 4TS,0,Wales,0,LD,5
498,52.21869873418664,-3.4602522463390235,LD1 6NB,0,Wales,Newbridge on Wye,LD,1
499,52.2497489444279,-3.2882393504652216,LD1 5UE,0,Wales,Llandegley,LD,1
500,52.28055215780021,-3.1160399209589262,LD8 2NT,0,Wales,Kinnerton,LD,8
501,52.311116418421676,-2.9436074988244267,0,0,England,0,0,0
502,52.341449507928964,-2.770895382762176,0,0,England,0,0,0
503,52.371534001387616,-2.5980006472386066,SY8 3RB,0,England,Cleehill,SY,8
504,52.40138599988746,-2.4248286193681503,DY14 8NT,0,England,0,DY,14
505,52.43098835113082,-2.251476661355372,DY11 5XR,Wyre Forest,England,Wolverley,DY,11
506,52.46035689448362,-2.077849879164988,0,0,England,Cradley,0,0
507,52.48947475179393,-1.9040459198408144,B19 3JG,Birmingham,England,0,B,19
508,52.51835749959592,-1.72996967104958,B46 1PE,North Warwickshire,England,Water Orton,B,46
509,52.54698853537933,-1.5557190616840175,CV10 0RH,North Warwickshire,England,Ansley Common,CV,10
510,52.575383171752776,-1.3811987640161094,LE9 8HW,Hinckley and Bosworth,England,0,LE,9
511,52.6035250833301,-1.206506985706458,LE19 4AZ,0,England,Leicester Forest East,LE,19
512,52.63142931771428,-1.0315481865880565,LE7 9NF,Harborough,England,Bushby,LE,7
513,52.65907982811184,-0.8564208499159089,LE15 8DH,Harborough,England,Owston,LE,15
514,52.68649139605434,-0.6810292260921059,LE15 7TB,0,England,Burley on the Hill,LE,15
515,52.713648254794904,-0.5054720707010427,PE9 4EG,South Kesteven,England,0,PE,9
516,52.740564918742564,-0.3296534277723985,PE10 0EJ,South Kesteven,England,0,PE,10
517,52.767225902635886,-0.1536723218630404,PE12 6AZ,South Holland,England,0,PE,12
518,52.793645452724924,0.022567406259461964,PE12 8QL,South Holland,England,0,PE,12
519,52.81980836665676,0.1989664665148102,PE12 9NR,South Holland,England,0,PE,12
520,52.84572862150141,0.3756212182375202,0,King's Lynn and West Norfolk,England,0,0,0
521,52.87139129922123,0.5524321093639325,PE31 6SB,King's Lynn and West Norfolk,England,Great Bircham,PE,31
522,52.89680309056934,0.7294465519142399,NR21 9LW,King's Lynn and West Norfolk,England,South Creake,NR,21
523,52.92197041160652,0.9067121680945741,NR23 1NU,North Norfolk,England,Warham,NR,23
524,52.94688564964781,1.0841782751440272,NR25 7EA,North Norfolk,England,Salthouse,NR,25
525,52.97154147556975,1.2617939522280737,NR27 9PD,North Norfolk,England,East Runton,NR,27
526,52.995944317042046,1.4396067746937968,0,0,England,0,0,0
527,52.03347678398834,-5.051582905755292,0,0,Wales,0,0,0
528,52.06671026175334,-4.881439751371219,0,0,Wales,0,0,0
529,52.09971967434157,-4.711003002351744,SA43 3LU,0,Wales,St Dogmaels,SA,43
530,52.132486079863995,-4.54036829538795,SA43 2HH,0,Wales,Aberporth,SA,43
531,52.165027034990565,-4.369442036373131,SA44 6BH,0,Wales,Caerwedros,SA,44
532,52.1973238623909,-4.198320166385203,SA48 7PS,0,Wales,Ciliau Aeron,SA,48
533,52.22939386291255,-4.026908853832983,SY25 6QJ,0,Wales,Llangeitho,SY,25
534,52.26121862536424,-3.8553043417754274,SY25 6EL,0,Wales,0,SY,25
535,52.292806461862284,-3.6834602783200583,0,0,Wales,0,0,0
536,52.324165424099284,-3.5113300621582164,LD6 5LS,0,Wales,0,LD,6
537,52.355286102563035,-3.338962538335989,LD1 6TT,0,Wales,0,LD,1
538,52.386159354767415,-3.1664068316749723,0,0,Wales,0,0,0
539,52.41679324034038,-2.993616390284077,0,0,England,0,0,0
540,52.447195555975114,-2.8205444182184465,SY7 9JQ,0,England,Halford,SY,7
541,52.47734883424946,-2.6472881951893514,SY7 9HS,0,England,Tugford,SY,7
542,52.50726921034813,-2.473752853497062,WV16 6RF,0,England,Neenton,WV,16
543,52.5369394899715,-2.3000359628801768,WV5 7DT,0,England,Claverley,WV,5
544,52.56637554612112,-2.126042432949721,0,Wolverhampton,England,Goldthorn Park,0,0
545,52.59556045913988,-1.9518701205619904,WS4 2HL,0,England,0,WS,4
546,52.62450983873147,-1.7774237155065624,B78 3DN,Lichfield,England,0,B,78
547,52.653207041388406,-1.6028013587552898,B79 0HA,North Warwickshire,England,Newton Regis,B,79
548,52.6816674124158,-1.427907523196159,LE67 2RH,North West Leicestershire,England,Heather,LE,67
549,52.709874585949365,-1.2528406308225908,LE67 9PH,Charnwood,England,0,LE,67
550,52.73784364180882,-1.0775049405939012,LE7 4ST,Charnwood,England,Ratcliffe on the Wreake,LE,7
551,52.765558493252676,-0.9019991523375288,LE13 0LZ,Melton,England,Sysonby,LE,13
552,52.79303395354288,-0.7262273141099415,LE14 4QZ,Melton,England,Sproxton,LE,14
553,52.82025421652566,-0.5502884002923583,NG33 4FW,South Kesteven,England,Burton le Coggles,NG,33
554,52.847233827847354,-0.374086251115153,NG34 0HS,South Kesteven,England,Aslackby,NG,34
555,52.87395726339183,-0.19772011214004545,PE11 4QR,South Holland,England,Quadring,PE,11
556,52.90043880014693,-0.02109361890039337,PE20 1NB,0,England,0,PE,20
557,52.92666319746817,0.15569371532815748,0,0,England,0,0,0
558,52.95264446265721,0.3327384565299085,0,0,England,0,0,0
559,53.00383943326646,0.6873483383421884,PE31 8FB,King's Lynn and West Norfolk,England,Burnham Deepdale,PE,31
560,53.029066271245775,0.8650087122738098,NR23 1AG,North Norfolk,England,0,NR,23
561,53.05404052067461,1.0428711478764727,0,0,England,0,0,0
562,53.078754832471844,1.2208846039499115,0,0,England,0,0,0
563,52.27010991098735,-4.4225154950429175,SY23 4TN,0,Wales,0,SY,23
564,52.30247948922225,-4.2510467368960745,SA46 0AU,0,Wales,0,SA,46
565,52.33462187071692,-4.079286651731893,SY23 5AP,0,Wales,0,SY,23
566,52.366518599971286,-3.907331680419242,SY23 4QU,0,Wales,Devil's Bridge,SY,23
567,52.39817800508533,-3.7351353790633017,0,0,Wales,Devil's Bridge,0,0
568,52.42960815329751,-3.5626510525616264,SY18 6QL,0,Wales,Cwmbelan,SY,18
569,52.4607996110387,-3.389927648315953,0,0,Wales,0,0,0
570,52.49174321222208,-3.2170143956518564,SY16 4PG,0,Wales,Kerry,SY,16
571,52.5224470320365,-3.0438646494374346,SY15 6SX,0,Wales,0,SY,15
572,52.55291888228177,-2.870431518720873,SY5 0SR,0,England,0,SY,5
573,52.58314125284132,-2.6968124891853824,SY6 7LQ,0,England,0,SY,6
574,52.61313031312989,-2.5229124975919426,TF13 6PA,0,England,0,TF,13
575,52.642868826639955,-2.3488293219636582,0,0,England,0,0,0
576,52.672372700142596,-2.174467674819069,ST19 9BP,South Staffordshire,England,Brewood,ST,19
577,52.70162497227063,-1.9999256236009169,WS12 1NA,Cannock Chase,England,0,WS,12
578,52.73064128602978,-1.8251076594692872,WS13 8HR,Lichfield,England,King's Bromley,WS,13
579,52.759404956711556,-1.6501121362726008,DE12 8HY,South Derbyshire,England,Rosliston,DE,12
580,52.78793136244874,-1.4748433267490977,DE73 7JN,South Derbyshire,England,0,DE,73
581,52.81620409669629,-1.2993998680459948,DE74 2DL,North West Leicestershire,England,Long Whatton,DE,74
582,52.84423827162046,-1.123685817469898,0,Rushcliffe,England,Costock,0,0
583,52.872017760330436,-0.9478000922652148,0,Rushcliffe,England,Colston Bassett,0,0
584,52.89955740794674,-0.7716465373505824,NG32 1NT,Melton,England,Belvoir,NG,32
585,52.926841368708885,-0.5953243467721666,NG31 9SL,South Kesteven,England,0,NG,31
586,52.953884219627284,-0.4187371561557709,NG34 8RX,North Kesteven,England,0,NG,34
587,52.98067039753274,-0.2419844329596433,NG34 9LS,North Kesteven,England,0,NG,34
588,53.00721421027596,-0.06496960666478722,PE22 7BQ,East Lindsey,England,0,PE,22
589,53.03350037872421,0.1122075853426044,PE22 9HZ,0,England,Wrangle,PE,22
590,52.471797445675634,-3.9596085170405098,SY24 5DJ,0,Wales,0,SY,24
591,52.50352873681111,-3.7870587404476495,0,0,Wales,0,0,0
592,52.535030387728995,-3.6142190489503787,0,0,Wales,0,0,0
593,52.566292940679375,-3.441138492641413,0,0,Wales,0,0,0
594,52.59730720585179,-3.2678664057067817,SY21 8QY,0,Wales,Manafon,SY,21
595,52.62808127404786,-3.0943560494224687,SY21 8JY,0,Wales,Leighton,SY,21
596,52.658622972224904,-2.9205604374619334,SY5 0BX,0,England,Asterley,SY,5
597,52.688914747362105,-2.7465772622179903,SY2 6ST,0,England,0,SY,2
598,52.71897280324135,-2.572311264175505,TF5 0DA,0,England,Longdon-upon-Tern,TF,5
599,52.748779860938285,-2.3978604304035183,TF10 9EW,0,England,Lilleshall,TF,10
600,52.77835186112935,-2.2231292755774064,0,0,England,0,0,0
601,52.80767180052933,-2.0482160785116053,ST16 3UT,0,England,Tixall,ST,16
602,52.83675535558054,-1.873025130972284,WS15 3AS,East Staffordshire,England,Abbots Bromley,WS,15
603,52.8655858001666,-1.697655000493582,DE65 5QN,South Derbyshire,England,Hatton,DE,65
604,52.89417854538111,-1.5220097588859394,DE23 3XG,Derby,England,0,DE,23
605,52.92251714379261,-1.346188259283445,DE72 3PD,Erewash,England,0,DE,72
606,52.9506167400456,-1.170094356548434,NG7 1JU,Nottingham,England,0,NG,7
607,52.97846116689554,-0.9938271861993108,NG12 1EP,Rushcliffe,England,Shelford,NG,12
608,53.00606530145178,-0.81729038921196,NG23 5JY,Newark and Sherwood,England,0,NG,23
609,53.03341325814424,-0.6405833801784461,NG32 3DY,South Kesteven,England,Caythorpe,NG,32
610,53.06051964547596,-0.463609589301885,LN5 0QQ,North Kesteven,England,0,LN,5
611,53.08736886102336,-0.28646870684194803,LN4 4BG,North Kesteven,England,Billinghay,LN,4
612,53.11397524362706,-0.1090639553960702,PE22 7RY,East Lindsey,England,Mareham le Fen,PE,22
613,53.140323475466346,0.06850470261019945,PE23 4AY,East Lindsey,England,East Keal,PE,23
614,53.16642762467865,0.2463342489666252,PE24 5JD,East Lindsey,England,Burgh Le Marsh,PE,24
615,52.6088566344364,-3.8392315486361865,SY20 8QG,0,Wales,0,SY,20
616,52.640430106001475,-3.666035236975568,0,0,Wales,0,0,0
617,52.67176407131328,-3.4925962562815718,0,0,Wales,0,0,0
618,52.70284931671397,-3.318964045956564,SY22 6HY,0,Wales,Pontrobert,SY,22
619,52.73369394867001,-3.1450917733320187,SY22 6XU,0,Wales,0,SY,22
620,52.76430580934701,-2.9709323563377286,SY10 8EN,0,England,Kinnerley,SY,10
621,52.79466730260909,-2.796583694813587,0,0,England,Myddle,0,0
622,52.82479466674275,-2.621950332229979,SY4 4NB,0,England,0,SY,4
623,52.85467058019693,-2.447130465463402,TF9 2LP,0,England,0,TF,9
624,52.88431101768954,-2.2720284105937227,ST21 6LY,0,England,0,ST,21
625,52.913698933808526,-2.0967426585926727,ST15 8TA,0,England,Hilderstone,ST,15
626,52.94285003856752,-1.9211773010662836,ST14 5EW,East Staffordshire,England,0,ST,14
627,52.97174756423441,-1.7454311200441806,DE6 2DS,Derbyshire Dales,England,Yeaveley,DE,6
628,53.00040695499714,-1.5694079856290286,DE6 4PQ,Amber Valley,England,Windley,DE,6
629,53.02881172233106,-1.3932069677757388,DE5 8PS,Amber Valley,England,Loscoe,DE,5
630,53.05697704349101,-1.2167317181087804,0,Gedling,England,Linby CP,0,0
631,53.08488671067335,-1.0400815912787338,NG22 8BN,Newark and Sherwood,England,Oxton CP,NG,22
632,53.11255563310686,-0.8631600235116362,NG23 6BE,Newark and Sherwood,England,South Muskham CP,NG,23
633,53.13996788520772,-0.6860666508278747,LN6 9QG,North Kesteven,England,Witham St Hughs,LN,6
634,53.16713810710079,-0.5087046971874112,LN4 2HR,North Kesteven,England,0,LN,4
635,53.19405065690551,-0.33117407655798564,LN3 5UL,North Kesteven,England,0,LN,3
636,53.22071990457995,-0.15337780381982158,LN9 5RJ,East Lindsey,England,Thimbleby,LN,9
637,53.2471304934144,0.024583932631347068,LN9 6QF,East Lindsey,England,Tetford,LN,9
638,53.27329652215288,0.20280832375678695,LN13 0HX,East Lindsey,England,Bilsby,LN,13
639,53.29920292070757,0.3811949103479277,0,0,England,0,0,0
640,52.7141596747933,-3.8916549945648535,LL40 1TA,0,Wales,0,LL,40
641,52.745805286158934,-3.7181008071329154,0,0,Wales,0,0,0
642,52.77721098220591,-3.5443021291205192,0,0,Wales,0,0,0
643,52.80836752530466,-3.3703085055015065,SY10 0HW,0,Wales,Pen-y-Bont-Fawr,SY,10
644,52.83928303763841,-3.196073009309408,SY10 7QQ,0,Wales,Llansilin,SY,10
645,52.8699653766321,-3.021548462360161,SY11 4NB,0,England,0,SY,11
646,52.90039690282287,-2.8468329726780217,SY12 0LQ,0,England,Lyneal,SY,12
647,52.93059388913976,-2.6718308859789874,SY13 3LB,0,England,Tilstock,SY,13
648,52.9605389711939,-2.4966406097085696,TF9 3TJ,0,England,Adderley,TF,9
649,52.990248157881496,-2.321166260597089,CW3 9TE,0,England,Madeley,CW,3
650,53.019704361453286,-2.145506542559506,ST2 9JW,Stoke-on-Trent,England,0,ST,2
651,53.048923325629794,-1.9695653462736893,ST10 2LS,Staffordshire Moorlands,England,Ipstones,ST,10
652,53.07788824085407,-1.7934416690750874,DE6 2GB,Staffordshire Moorlands,England,0,DE,6
653,53.10661458454232,-1.6170391785766765,DE4 4HU,Derbyshire Dales,England,Bonsall,DE,4
654,53.135085826868924,-1.4404571623890163,DE55 6AP,North East Derbyshire,England,Brackenfield,DE,55
655,53.163317177831566,-1.2635990681030498,NG17 3JQ,Ashfield,England,Teversal,NG,17
656,53.19129238886088,-1.0865644703608284,NG21 9HF,Newark and Sherwood,England,Edwinstowe CP,NG,21
657,53.219026401436146,-0.9092565998292886,NG22 0EU,Newark and Sherwood,England,Egmanton CP,NG,22
658,53.24650324975467,-0.7317753148409403,NG23 7DA,Newark and Sherwood,England,Thorney CP,NG,23
659,53.27373760569256,-0.5540236322898577,LN1 2RQ,West Lindsey,England,Burton-by-Lincoln,LN,1
660,53.300713787708645,-0.3761016907601606,LN3 5BF,West Lindsey,England,0,LN,3
661,53.327446197006324,-0.19791229657879014,LN8 6JQ,East Lindsey,England,South Willingham,LN,8
662,53.35391943778496,-0.019555865044472626,LN11 9LB,East Lindsey,England,0,LN,11
663,53.380147639521205,0.15906500482481378,LN11 7TL,East Lindsey,England,Saltfleetby St Peter,LN,11
664,53.406115693617366,0.33784962464976404,0,0,England,0,0,0
665,51.6423830743375,-9.537371429692199,P75 FE44,0,Munster,0,0,0
666,51.68165145207934,-9.372213335018193,0,0,Munster,0,0,0
667,51.720712427148456,-9.206731877479866,P47 X288,0,Munster,0,0,0
668,51.75954363733248,-9.04101954355213,P47 AD98,0,Munster,0,0,0
669,51.7981659406656,-8.87498506916088,P72 VY04,Blarney - Macroom,Munster,0,0,0
670,51.83655722056311,-8.708721279771291,P31 F861,Blarney - Macroom,Munster,0,0,0
671,51.87473809327554,-8.542136637622031,T12 A710,Cork,Munster,0,0,0
672,51.91268668955808,-8.37532430586598,T45 V026,Cobh Municipal District,Munster,0,0,0
673,51.95042338253252,-8.208192474942571,P25 TC97,0,Munster,0,0,0
674,51.98792655200336,-8.040834644304576,0,0,Munster,0,0,0
675,52.025206013821325,-7.873205284178683,P36 VK31,0,Munster,0,0,0
676,52.350591115576066,-6.3522252829873045,0,0,0,0,0,0
677,52.85115938542959,-3.7704196828265153,LL23 7TE,0,Wales,0,LL,23
678,52.882637135564316,-3.596260015211143,LL23 7BT,0,Wales,0,LL,23
679,52.913865298796395,-3.4219036687788837,0,0,Wales,0,0,0
680,52.9448520130786,-3.2473036219059326,0,0,Wales,0,0,0
681,52.975605151146965,-3.072412599917912,LL14 3DH,0,Wales,Cefn Mawr,LL,14
682,53.006107029996386,-2.8973289197713417,LL13 0AG,0,Wales,Bangor-on-Dee,LL,13
683,53.036373957338654,-2.7219567286760205,SY14 8LT,0,England,0,SY,14
684,53.06638852573278,-2.5463946454190274,CW5 8LA,0,England,Acton,CW,5
685,53.096166778392,-2.370546586615053,CW1 5XF,0,England,Oakhanger,CW,1
686,53.12569158501664,-2.1945114699195645,ST7 3PP,Staffordshire Moorlands,England,0,ST,7
687,53.15497872317143,-2.018192984301958,ST13 8SY,Staffordshire Moorlands,England,Meerbrook,ST,13
688,53.18401134126236,-1.8416903432256209,SK17 9QJ,Derbyshire Dales,England,Crowdicote,SK,17
689,53.21280495007,-1.6649070110194406,DE45 1AQ,Derbyshire Dales,England,0,DE,45
690,53.24134297825668,-1.4879424937965997,S42 7JN,North East Derbyshire,England,Old Brampton,S,42
691,53.269640668697434,-1.31070003430615,S43 4UA,0,England,Stanfree,S,43
692,53.29768173184753,-1.1332794280535112,S80 3BF,Bassetlaw,England,0,S,80
693,53.325481141569746,-0.9555836993243074,DN22 7XF,Bassetlaw,England,0,DN,22
694,53.353022891634176,-0.7777129296599841,DN22 9HH,Bassetlaw,England,0,DN,22
695,53.38032168579967,-0.5995699280528607,DN21 5DN,West Lindsey,England,Glentworth,DN,21
696,53.40736180265768,-0.4212550586251373,LN8 3LZ,West Lindsey,England,Osgodby,LN,8
697,53.43415767478673,-0.2426709183010923,LN8 6HP,West Lindsey,England,0,LN,8
698,53.46069386709011,-0.06391815022903151,DN36 5QA,East Lindsey,England,North Thoresby,DN,36
699,53.48698453990536,0.1151008574565615,LN11 7LW,East Lindsey,England,0,LN,11
700,53.5130145459214,0.294285186234226,0,0,England,0,0,0
701,51.78438989034011,-9.435678799160627,0,0,Munster,0,0,0
702,51.8235345100446,-9.26989785864411,0,0,Munster,0,0,0
703,51.86244906894783,-9.10388420519024,0,Blarney - Macroom,Munster,0,0,0
704,51.901154467120676,-8.93754640686622,P12 CY51,Blarney - Macroom,Munster,0,0,0
705,51.93962853765353,-8.770977456926587,0,Blarney - Macroom,Munster,0,0,0
706,51.977891938504236,-8.604085647930123,T23 VY22,Blarney - Macroom,Munster,0,0,0
707,52.015922750398616,-8.436964313264541,T34 ND26,Cobh Municipal District,Munster,0,0,0
708,52.05374138782869,-8.269521471873944,0,0,Munster,0,0,0
709,52.0913261808761,-8.101850795898297,P51 AX94,0,Munster,0,0,0
710,52.12868696389498,-7.9339066698643315,P51 VW44,0,Munster,0,0,0
711,52.16583332402035,-7.7656431914711925,0,0,Munster,0,0,0
712,52.202743968567816,-7.597154538186053,0,0,Munster,0,0,0
713,52.312136843323756,-7.089972204909508,X91 N9TA,0,Leinster,0,0,0
714,52.348139028327815,-6.920404763490225,Y34 HT99,0,Leinster,0,0,0
715,52.38392232922509,-6.750522738660217,Y21 H972,0,Leinster,0,0,0
716,52.419466219363954,-6.580421307499405,Y21 TW82,0,Leinster,0,0,0
717,52.454789750381956,-6.41000702064947,Y21 Y183,0,Leinster,0,0,0
718,52.956490377123394,-3.8229931038959633,0,0,Wales,0,0,0
719,52.98804050597241,-3.648471153725082,0,0,Wales,0,0,0
720,53.01934061305618,-3.4737507741142566,0,0,Wales,Melin y wig,0,0
721,53.050398852149975,-3.2987848484217785,LL15 2SY,0,Wales,0,LL,15
722,53.08122311135266,-3.1235260051052367,LL11 5YR,0,Wales,0,LL,11
723,53.11179566390078,-2.9480727708010472,LL12 0DB,0,Wales,Rossett,LL,12
724,53.14213285242929,-2.772329093459408,CH3 9AX,Chester,England,0,CH,3
725,53.172217226229705,-2.596393803981571,CW6 9DA,0,England,Little Budworth,CW,6
726,53.2020648629715,-2.4201706180986804,CW10 9LN,0,England,0,CW,10
727,53.23165858959015,-2.2437586680043533,SK11 9LL,0,England,Siddington,SK,11
728,53.26101421763252,-2.0670614401772847,SK11 0AW,0,England,0,SK,11
729,53.29011485325414,-1.8901783650315147,SK17 8DL,High Peak,England,0,SK,17
730,53.31897604073637,-1.7130127028153963,S32 1AH,Derbyshire Dales,England,Abney,S,32
731,53.34758116701732,-1.535664178992603,S11 9QA,Sheffield,England,0,S,11
732,53.37594550798438,-1.3580358306597642,0,0,England,0,0,0
733,53.40405273290655,-1.1802276750587084,S66 8NP,0,England,0,S,66
734,53.431917848163565,-1.0021425292692714,0,Bassetlaw,England,0,0,0
735,53.45952480688886,-0.8238806989400788,DN9 2NW,0,England,Haxey,DN,9
736,53.48688834485592,-0.6453447843234126,DN21 3HZ,0,England,0,DN,21
737,53.513992700580786,-0.4666353760030187,DN20 9HS,0,England,Cadney,DN,20
738,53.540852338147495,-0.2876548606485485,LN7 6RP,West Lindsey,England,Great Limber,LN,7
739,53.56745178295689,-0.10850411020654076,DN31 2BL,0,England,0,DN,31
740,53.593805226335924,0.07091469893745082,HU12 0UG,0,England,0,HU,12
741,51.80799016764306,-9.830704292772351,0,0,0,0,0,0
742,51.847655733613045,-9.665186595731289,V93 XCA4,0,Munster,0,0,0
743,51.887092223410924,-9.499432836462782,V93 XY75,0,Munster,0,0,0
744,51.92632082037267,-9.333351693877916,0,0,Munster,0,0,0
745,51.96531906085186,-9.167035985479094,P12 AH39,Blarney - Macroom,Munster,0,0,0
746,52.004107887110145,-9.000394110993671,P12 DW92,Blarney - Macroom,Munster,0,0,0
747,52.04266508169725,-8.833519231811376,0,0,Munster,0,0,0
748,52.08101134443228,-8.666319470314562,0,0,Munster,0,0,0
749,52.119124705795144,-8.498888330493259,0,0,Munster,0,0,0
750,52.157025621801644,-8.331133659284356,P61 KV78,0,Munster,0,0,0
751,52.19469237259328,-8.163149301904461,0,0,Munster,0,0,0
752,52.23213481108815,-7.9948895568920815,0,0,Munster,0,0,0
753,52.269362542641716,-7.826308433973237,0,0,Munster,0,0,0
754,52.30635422510912,-7.657500287414655,0,0,Munster,0,0,0
755,52.34312969911454,-7.4883722842720495,0,0,Munster,0,0,0
756,52.379667876487,-7.319019116221976,E32 ND23,0,Leinster,0,0,0
757,52.41598834934978,-7.149347682004898,0,0,Leinster,0,0,0
758,52.45207028522304,-6.9794530090246125,0,0,Leinster,0,0,0
759,52.487933026407006,-6.80924172988068,0,0,Leinster,0,0,0
760,52.5235559978253,-6.6388092059296655,0,0,Leinster,0,0,0
761,52.5589582906423,-6.468061805866841,Y21 D560,0,Leinster,0,0,0
762,52.594119588891665,-6.297095223135156,0,0,Leinster,0,0,0
763,52.932918001123454,-4.5727551936219575,LL53 6DB,0,Wales,Morfa Nefyn,LL,53
764,52.96550143021656,-4.398877085007448,LL54 5AG,0,Wales,Llanaelhaearn,LL,54
765,53.06179623393914,-3.8758223154606593,LL25 0DQ,0,Wales,Dolwyddelan,LL,25
766,53.09341906740405,-3.700936789187504,0,0,Wales,0,0,0
767,53.12479144334253,-3.5258510652586685,LL16 5RL,0,Wales,0,LL,16
768,53.155921531405156,-3.3505179316528797,LL16 4NY,0,Wales,Llanynys,LL,16
769,53.18681723510548,-3.1748899195806515,CH7 5HE,0,Wales,0,CH,7
770,53.21746078370443,-2.999065766105664,CH5 2RH,0,Wales,Sealand,CH,5
771,53.247868554901025,-2.822949219163465,CH2 4JL,0,England,Thornton le Moors,CH,2
772,53.27802305450279,-2.6466393225420486,WA6 8HR,0,England,Crowton,WA,6
773,53.307940394775116,-2.4700395903193746,WA16 0JG,0,England,0,WA,16
774,53.33760335967308,-2.2932493700250918,WA16 7LZ,0,England,0,WA,16
775,53.367027794863866,-2.1161719448630647,SK7 6EZ,0,England,0,SK,7
776,53.39619676403818,-1.9389069630212479,0,High Peak,England,0,0,0
777,53.42512584511499,-1.7613574798689935,S33 0BB,High Peak,England,0,S,33
778,53.45379838309486,-1.5836234410691414,S35 0DE,Sheffield,England,Bolsterstone,S,35
779,53.482229687013024,-1.4056076772532171,S63 6HA,0,England,Brampton,S,63
780,53.510403384740066,-1.2274104282736098,DN5 7ST,0,England,Cadeby,DN,5
781,53.538334515306566,-1.0489343031776177,DN3 3DY,0,England,Armthorpe,DN,3
782,53.566006990998716,-0.8702798326206884,DN8 5SX,0,England,0,DN,8
783,53.59343557973692,-0.6913494072743629,DN15 8FB,0,England,0,DN,15
784,53.62060447975277,-0.5122438451090845,DN20 0PX,0,England,Bonby,DN,20
785,53.64752818676633,-0.332865321685411,DN39 6XF,0,England,0,DN,39
786,53.67419118646859,-0.15331493869874593,HU12 9JX,0,England,0,HU,12
787,53.70060770130497,0.026505340082397848,HU19 2QL,0,England,Patrington,HU,19
788,51.98976172856546,-9.563479959966353,0,0,Munster,0,0,0
789,52.02907464059275,-9.397097885283404,0,0,Munster,0,0,0
790,52.06815690069352,-9.230479375348068,0,0,Munster,0,0,0
791,52.10702949347702,-9.063532661058753,P51 E8PY,0,Munster,0,0,0
792,52.14567015073318,-8.896351072290773,0,0,Munster,0,0,0
793,52.1840996142988,-8.728842560745314,0,0,Munster,0,0,0
794,52.222295864188006,-8.561100801387207,0,0,Munster,0,0,0
795,52.260279398096436,-8.393033468625687,P67 AV27,0,Munster,0,0,0
796,52.298028446004956,-8.224734581148772,P67 PN32,The Municipal District of Cappamore  Kilmallock,Munster,0,0,0
797,52.33555287945697,-8.056158351213389,E21 XC93,0,Munster,0,0,0
798,52.37286232208982,-7.887258700261708,E21 H244,0,Munster,0,0,0
799,52.40993538207665,-7.718130159788696,0,0,Munster,0,0,0
800,52.44679194084222,-7.548679719735591,0,0,Munster,0,0,0
801,52.48341086086687,-7.379002251518723,0,0,Leinster,0,0,0
802,52.519811774708955,-7.209004474942564,0,0,Leinster,0,0,0
803,52.55597380088466,-7.038781599666594,0,0,Leinster,0,0,0
804,52.59191632175582,-6.8682400775414205,0,0,Leinster,0,0,0
805,52.627618713598345,-6.6974754546986945,0,0,Leinster,0,0,0
806,52.66310010725678,-6.5263939172808945,0,0,Leinster,0,0,0
807,52.698340138485044,-6.355091346028,0,0,Leinster,0,0,0
808,52.733357685299815,-6.183473663680493,Y14 YN15,0,Leinster,0,0,0
809,53.102973593170795,-4.2786066300535515,LL54 5UB,0,Wales,Llanwnda,LL,54
810,53.135142975579306,-4.1039097970766765,LL55 3EN,0,Wales,Dinorwig,LL,55
811,53.16708040405867,-3.9289113362166175,0,0,Wales,0,0,0
812,53.19877627312517,-3.7536609207607463,0,0,Wales,0,0,0
813,53.23022124799232,-3.578208521565837,LL22 8PE,0,Wales,Llanfair Talhaiarn,LL,22
814,53.261423514239816,-3.402506830863235,LL17 0DS,St Asaph,Wales,0,LL,17
815,53.29239099084853,-3.2265082822309483,CH8 9DU,0,Wales,Carmel,CH,8
816,53.32310586288313,-3.0503118239179283,CH63 1JH,0,England,Thornton Hough,CH,63
817,53.353584543249845,-2.8738210030779565,L24 9AB,Liverpool,England,0,L,24
818,53.38380949405243,-2.697135077169366,WA8 3GA,0,England,0,WA,8
819,53.413796862293914,-2.5201573578350263,WA3 6QP,0,England,Birchwood,WA,3
820,53.443529388730155,-2.3429874087499316,M41 9LJ,Trafford,England,0,M,41
821,53.47302295328918,-2.1655283090464943,M11 1LW,Manchester,England,0,M,11
822,53.50226057697896,-1.987879925521696,SK15 3SE,Tameside,England,Carrbrook,SK,15
823,53.531257871495114,-1.8099451078546829,HD9 2TS,0,England,0,HD,9
824,53.559998139684076,-1.631824022768442,S75 4AN,0,England,0,S,75
825,53.58849672386631,-1.453419293603753,S71 3EL,0,England,Carlton,S,71
826,53.616737210298794,-1.2748313837104452,WF9 1HY,Wakefield,England,Upton,WF,9
827,53.644734670799,-1.0959626932633135,DN6 0HB,0,England,Fenwick,DN,6
828,53.6724729765918,-0.9169139788374391,0,0,England,0,0,0
829,53.69996692787893,-0.7375874206695394,DN14 8HR,0,England,Ousefleet,DN,14
830,53.72720068239515,-0.5580840650554549,HU15 1GB,0,England,Brough,HU,15
831,53.75418876762936,-0.3783058755785836,HU5 3UE,Hull,England,0,HU,5
832,53.78091562935187,-0.1983541846478239,0,0,England,0,0,0
833,53.80739552125758,-0.018130742532753704,0,0,England,0,0,0
834,53.83361317866136,0.1622628359546107,0,0,England,0,0,0
835,51.97291235757538,-10.126065926959994,V23 WK27,0,Munster,0,0,0
836,52.01295479351768,-9.960286097339916,V93 H5W9,0,Munster,0,0,0
837,52.05279039041667,-9.794173652216305,0,0,Munster,0,0,0
838,52.092396337319705,-9.627821391369887,V93 E029,0,Munster,0,0,0
839,52.131793903058394,-9.4611376592959,V93A 995,0,Munster,0,0,0
840,52.17096052168246,-9.294215605830454,0,0,Munster,0,0,0
841,52.20991722030545,-9.126963292554665,0,0,Munster,0,0,0
842,52.248641679737986,-8.959474218175654,0,0,Munster,0,0,0
843,52.287154683991155,-8.791656163209378,0,0,Munster,0,0,0
844,52.32543416239278,-8.623602973963822,0,0,Munster,0,0,0
845,52.36350065447481,-8.45522215180076,0,The Municipal District of Cappamore  Kilmallock,Munster,0,0,0
846,52.401332339835996,-8.286607889270439,0,The Municipal District of Cappamore  Kilmallock,Munster,0,0,0
847,52.43893910870672,-8.117714312054314,E34 KH36,0,Munster,0,0,0
848,52.47633060306764,-7.94849525299922,0,0,Munster,0,0,0
849,52.51348538118742,-7.779045421253492,E91 R7R2,0,Munster,0,0,0
850,52.55042336544696,-7.609271629084595,0,0,Munster,0,0,0
851,52.58712336875493,-7.439268928096915,R95 YT25,0,Leinster,0,0,0
852,52.62360506425964,-7.268943858583874,R95 XV2D,0,Leinster,0,0,0
853,52.65984752124997,-7.098391812932409,R95 YE82,0,Leinster,0,0,0
854,52.69587016230359,-6.9275190616533004,0,0,Leinster,0,0,0
855,52.73165231482502,-6.75642133614878,0,0,Leinster,0,0,0
856,52.76721314949268,-6.585004639401929,0,0,Leinster,0,0,0
857,52.80253225355661,-6.413365039969247,0,0,Leinster,0,0,0
858,52.83762854447743,-6.241408275622031,0,0,Leinster,0,0,0
859,52.87248187107443,-6.069230750115971,0,0,Leinster,0,0,0
860,53.24032964589665,-4.157624214789022,LL59 5TD,0,Wales,Llandegfan,LL,59
861,53.27234085525516,-3.982261462530744,LL34 6UU,0,Wales,0,LL,34
862,53.30411009223811,-3.806644844165117,LL31 9JR,0,Wales,Llanrhos,LL,31
863,53.33562799744686,-3.630824437923304,0,0,Wales,0,0,0
864,53.36690277244398,-3.45475283992027,LL18 1RG,0,Wales,0,LL,18
865,53.39794235173042,-3.2783823857147096,0,0,England,0,0,0
866,53.42872887595284,-3.1018122354985342,CH46 2QY,0,England,Leasowe,CH,46
867,53.45927879336814,-2.9249457348749117,L9 7AD,Liverpool,England,0,L,9
868,53.48957452215549,-2.7478823557561207,WA11 7RT,0,England,Moss Bank,WA,11
869,53.51963224419773,-2.5705252065661344,WN2 5TE,0,England,0,WN,2
870,53.54943465683156,-2.3929740679348788,BL4 7QL,0,England,0,BL,4
871,53.57899767438656,-2.215131814124687,OL10 2QA,0,England,0,OL,10
872,53.60830427496918,-2.037098531377238,OL3 5UN,0,England,Denshaw,OL,3
873,53.63737010419104,-1.8587768628681445,HD7 4JJ,Kirklees,England,Golcar,HD,7
874,53.666178422526656,-1.6802671972423575,WF14 8HE,Kirklees,England,Lower Hopton,WF,14
875,53.69474460571973,-1.5014719497219866,WF1 2SB,Wakefield,England,Newton Hill,WF,1
876,53.72305219819712,-1.3224918080423207,WF10 3EU,Wakefield,England,Wheldon,WF,10
877,53.75111630469942,-1.143228962663318,YO8 9LG,0,England,0,YO,8
878,53.778920755175285,-0.9637843969939212,0,0,England,0,0,0
879,53.8064803822425,-0.7840600799794031,YO43 4DA,0,England,0,YO,43
880,53.833779302925436,-0.60415728718149,0,0,England,0,0,0
881,53.86083207661487,-0.4239777693356552,HU17 9UU,0,England,0,HU,17
882,53.88762310894865,-0.24362309053099,HU11 5BJ,0,England,Sigglesthorne,HU,11
883,53.91416668500247,-0.06299478665344058,0,0,England,0,0,0
884,52.115381677148655,-10.025521775420938,0,0,0,0,0,0
885,52.15530279708657,-9.859110923809089,0,0,Munster,0,0,0
886,52.19499398061148,-9.692458354762154,0,0,Munster,0,0,0
887,52.2344765395388,-9.52547224485949,0,0,Munster,0,0,0
888,52.27372785643755,-9.358245910586076,0,0,Munster,0,0,0
889,52.31276900108296,-9.190687243718227,0,The Municipal District of Newcastle West,Munster,0,0,0
890,52.35157760308588,-9.02288991213678,0,The Municipal District of Newcastle West,Munster,0,0,0
891,52.390174488788816,-8.854761524669055,0,The Municipal District of Newcastle West,Munster,0,0,0
892,52.42853753661194,-8.686396099330427,0,The Municipal District of Cappamore  Kilmallock,Munster,0,0,0
893,52.466687328080255,-8.517700963915951,0,The Municipal District of Cappamore  Kilmallock,Munster,0,0,0
894,52.504601992188405,-8.348770485225007,V94 K5P6,The Municipal District of Cappamore  Kilmallock,Munster,0,0,0
895,52.542291437915324,-8.17955870206907,0,0,Munster,0,0,0
896,52.57976532564641,-8.010019358387412,0,0,Munster,0,0,0
897,52.61700216352288,-7.840247341403211,0,0,Munster,0,0,0
898,52.654021915037404,-7.670149285151041,0,0,Munster,0,0,0
899,52.6908033433033,-7.499820421868237,0,0,Leinster,0,0,0
900,52.727366162214096,-7.329167111762117,R95 AK4V,0,Leinster,0,0,0
901,52.7636893916071,-7.15828493041561,0,0,Leinster,0,0,0
902,52.799792494430584,-6.987079966408729,0,0,Leinster,0,0,0
903,52.835654748992965,-6.815648136906789,R93 K8N1,0,Leinster,0,0,0
904,52.871295365960655,-6.643895261126637,0,0,Leinster,0,0,0
905,52.90669388385489,-6.471917595957942,0,0,Leinster,0,0,0
906,52.94186925973361,-6.299620693580137,0,0,Leinster,0,0,0
907,52.97680129406641,-6.127101148654273,A67 DR74,0,Leinster,0,0,0
908,53.34549022999596,-4.211602335860508,LL74 8UN,0,Wales,Benllech,LL,74
909,53.37757555464021,-4.035873996510958,LL77 7YR,0,Wales,0,LL,77
910,53.59531611544259,-2.7988824524391953,L40 4BQ,West Lancashire,England,Hoscar,L,40
911,53.625444518513135,-2.621144428741769,PR7 4BY,0,England,Heath Charnock,PR,7
912,53.655317143407316,-2.4432106377068106,BL7 0NF,0,England,Chapeltown,BL,7
913,53.68494993899753,-2.264983747925936,BL0 0GQ,Rossendale,England,Hugh Mill,BL,0
914,53.71432584026857,-2.086564065921697,OL14 5RG,Calderdale,England,0,OL,14
915,53.74346052688795,-1.9078540275506908,HX2 0TW,Calderdale,England,Fountainhead,HX,2
916,53.77233721673928,-1.7289542442424537,BD4 9NU,Bradford,England,0,BD,4
917,53.800971319127854,-1.5497669222702493,0,Leeds,England,0,0,0
918,53.82934633643271,-1.3703929746439245,0,Leeds,England,Aberford,0,0
919,53.85747740645446,-1.190734381263871,YO23 7BA,0,England,Bolton Percy,YO,23
920,53.88534831764915,-1.010892353288525,YO19 6EG,0,England,Wheldrake,YO,19
921,53.91297393518591,-0.8307686475125449,0,0,England,0,0,0
922,53.94033833516387,-0.6504647697057321,YO42 1XU,0,England,Warter,YO,42
923,53.967456109009326,-0.4698822568822332,YO25 9AF,0,England,Southburn,YO,25
924,53.994311622014386,-0.2891229057800513,0,0,England,0,0,0
925,54.020919190767444,-0.10808803701398646,0,0,England,0,0,0
926,52.29755792308823,-9.757395462217094,V96 E6ND,0,Munster,0,0,0
927,52.33712581995386,-9.590106243237843,0,0,Munster,0,0,0
928,52.37646218015479,-9.422574879827666,0,0,Munster,0,0,0
929,52.41558811628749,-9.254709093462608,0,The Municipal District of Newcastle West,Munster,0,0,0
930,52.454481206539526,-9.086602721543457,V42 AV91,The Municipal District of Newcastle West,Munster,0,0,0
931,52.49316231974419,-8.918163200697318,0,The Municipal District of Adare  Rathkeale,Munster,0,0,0
932,52.531609283189596,-8.749484721015932,0,The Municipal District of Adare  Rathkeale,Munster,0,0,0
933,52.56984272055286,-8.580474436199825,0,The Municipal District of Adare  Rathkeale,Munster,0,0,0
934,52.60784070999918,-8.411226887689491,0,The Municipal District of Cappamore  Kilmallock,Munster,0,0,0
935,52.64561317931867,-8.241696027126764,0,The Municipal District of Cappamore  Kilmallock,Munster,0,0,0
936,52.683169807364024,-8.071835509225764,0,0,Munster,0,0,0
937,52.720489051922456,-7.901740399711487,0,0,Munster,0,0,0
938,52.757590917756644,-7.731317153817483,E41 H5K2,0,Munster,0,0,0
939,52.7944541179575,-7.5606611848647365,0,0,Leinster,0,0,0
940,52.831098407321434,-7.389678672390135,0,0,Leinster,0,0,0
941,52.867502756006544,-7.2184653756473605,0,0,Leinster,0,0,0
942,52.9036866674889,-7.0469272006851735,0,0,Leinster,0,0,0
943,52.93962937075281,-6.875160250931006,0,0,Leinster,0,0,0
944,52.9753501166091,-6.7030701612188315,W91 YR44,0,Leinster,0,0,0
945,53.01082839462184,-6.5307533772951505,0,0,Leinster,0,0,0
946,53.04608320160217,-6.358115265114764,0,0,Leinster,0,0,0
947,53.081094289441424,-6.185252610792519,A98 KN50,0,Leinster,0,0,0
948,53.115880399626725,-6.012070513803352,A63 HW80,0,Leinster,0,0,0
949,53.418235262437,-4.441635804000709,LL67 0LH,0,Wales,Llanbadrig,LL,67
950,53.450628161467705,-4.265848297131167,LL77 7YR,0,Wales,0,LL,77
951,53.70103774879173,-2.8501393405303195,PR4 6RS,West Lancashire,England,Becconsall,PR,4
952,53.73123716521967,-2.672018975905265,PR5 4UQ,South Ribble,England,Bamber Bridge,PR,5
953,53.76118033352168,-2.4937010475503154,BB1 8JW,0,England,0,BB,1
954,53.79088323725657,-2.3150880175730038,BB12 7BW,0,England,0,BB,12
955,53.820328768063916,-2.136280413624877,0,Pendle,England,0,0,0
956,53.84953263980911,-1.9571804634150736,BD22 7JH,Bradford,England,Oakworth,BD,22
957,53.878478027562615,-1.7778890020327118,0,Leeds,England,Hawksworth,0,0
958,53.90718037433177,-1.5983080259588425,LS21 2PY,0,England,Huby,LS,21
959,53.935623140226745,-1.4185386743798092,LS22 6AH,0,England,0,LS,22
960,53.963821496247114,-1.2384827157782663,YO26 8JW,0,England,Long Marston,YO,26
961,53.99175918913671,-1.058241589991057,YO32 9ZD,0,England,Huntington,YO,32
962,54.01945111675322,-0.8777168407894398,YO41 1AU,Ryedale,England,Scrayingham,YO,41
963,54.04688131405244,-0.6970102051071766,YO17 9TF,Ryedale,England,Thixendale,YO,17
964,54.074064404631855,-0.5160230053498213,0,0,England,0,0,0
965,54.10098471322135,-0.3348572718871719,YO25 3ED,0,England,Octon,YO,25
966,54.12765658805593,-0.15341410916131648,YO15 1JH,0,England,Bempton,YO,15
967,52.279829460108026,-10.323569946546609,0,0,0,0,0,0
968,52.32013020001988,-10.156899061327966,0,0,0,0,0,0
969,52.360223398594705,-9.989889311250677,0,0,0,0,0,0
970,52.43973966938847,-9.655040935078748,0,0,Munster,0,0,0
971,52.4791614188096,-9.487203799044263,V31 TR74,0,Munster,0,0,0
972,52.51837249280453,-9.319030131975113,0,0,0,0,0,0
973,52.55735041791308,-9.150613941133901,0,0,0,0,0,0
974,52.596116105619224,-8.981862490436557,0,0,0,0,0,0
975,52.63464733185366,-8.812870142415841,0,0,0,0,0,0
976,52.6729647626053,-8.643543876150575,0,0,0,0,0,0
977,52.7110464249836,-8.473978408110185,0,0,0,0,0,0
978,52.748902265652596,-8.304127602466608,0,0,0,0,0,0
979,52.786541981994894,-8.133945024390401,0,0,0,0,0,0
980,52.8239439812164,-7.96352591853162,0,0,0,0,0,0
981,52.86112830950846,-7.792776560754738,0,0,0,0,0,0
982,52.898073629711476,-7.621792545911592,0,0,0,0,0,0
983,52.93479973768295,-7.450479872284308,0,0,0,0,0,0
984,52.97128555367336,-7.278934483268725,0,0,0,0,0,0
985,53.00755062184392,-7.107062101781733,0,0,0,0,0,0
986,53.043574121625966,-6.9349590180088185,0,0,0,0,0,0
987,53.07937534413168,-6.762530681784196,0,0,0,0,0,0
988,53.11493372973872,-6.589873728231861,0,0,0,0,0,0
989,53.15026831516755,-6.416893336448883,0,0,0,0,0,0
990,53.18535880350175,-6.243686484549662,0,0,0,0,0,0
991,53.220223975737674,-6.07015808330392,0,0,0,0,0,0
992,53.837008157672294,-2.7231501929521538,0,0,0,0,0,0
993,53.867022201991304,-2.5444466401564068,0,0,0,0,0,0
994,53.896795545450146,-2.3654459633489133,0,0,0,0,0,0
995,53.926311036118435,-2.186248912158825,0,0,0,0,0,0
996,53.95558442220202,-2.0067575053171423,0,0,0,0,0,0
997,53.98459883573458,-1.8270728024483809,0,0,0,0,0,0
998,54.0133697535665,-1.6470965893956104,0,0,0,0,0,0
999,54.04188059331678,-1.4669302324247362,0,0,0,0,0,0
1000,54.07014655932335,-1.2864752877399859,0,0,0,0,0,0
1001,54.0981513563969,-1.1058334247869681,0,0,0,0,0,0
1002,54.12590991522147,-0.9249059734380656,0,0,0,0,0,0
1003,54.1534062293902,-0.7437949027486863,0,0,0,0,0,0
1004,54.18065495480767,-0.5624013196256983,0,0,0,0,0,0
1005,54.207640375423935,-0.3808274890556809,0,0,0,0,0,0
1006,54.23437687125488,-0.1989742984035,0,0,0,0,0,0
1007,52.542316012287614,-9.72027760386125,0,0,0,0,0,0
1008,52.58182349773125,-9.552133956679837,0,0,0,0,0,0
1009,52.62112005686715,-9.383651652520966,0,0,0,0,0,0
1010,52.66018316436245,-9.214924868846328,0,0,0,0,0,0
1011,52.699033774511975,-9.045860696350413,0,0,Munster,0,0,0
1012,52.73764961166297,-8.876553670367358,V14 AK19,0,Munster,0,0,0
1013,52.77605138427596,-8.70691059482755,0,0,Munster,0,0,0
1014,52.81421706817786,-8.537026361613073,0,0,Munster,0,0,0
1015,52.85215662896936,-8.366854747125016,0,0,Munster,0,0,0
1016,52.889879782625634,-8.196349226671208,E45 AY62,0,Munster,0,0,0
1017,52.92736488554321,-8.025605224246037,0,0,Leinster,0,0,0
1018,52.96463202550092,-7.854528835777155,E53 YX67,0,Leinster,0,0,0
1019,53.00165981486013,-7.6832158380907,R32 RC53,0,Leinster,0,0,0
1020,53.03846809069773,-7.51157204762981,0,0,Leinster,0,0,0
1021,53.07503572312722,-7.339693592400413,0,0,Leinster,0,0,0
1022,53.111382297152964,-7.16748601158684,R32 HR67,0,Leinster,0,0,0
1023,53.1474869424235,-6.99504578262528,W34 HW66,0,Leinster,0,0,0
1024,53.18336899050955,-6.822278169733084,W12 AD93,0,Leinster,0,0,0
1025,53.21900783237225,-6.649279997929464,W91 AW7D,0,Leinster,0,0,0
1026,53.254422544797954,-6.475956258820199,D24 VP03,0,Leinster,0,0,0
1027,53.289592781832035,-6.302404123062257,D14 VY33,0,Leinster,0,0,0
1028,53.32453736413599,-6.12852831207024,A96 HF51,0,Leinster,0,0,0
1029,53.942755468531686,-2.774539431604538,PR3 1AE,Wyre,England,Forton,PR,3
1030,53.972840722942,-2.5954487651081433,LA2 9BN,Lancaster,England,0,LA,2
1031,54.00268483917761,-2.416058932492081,0,Ribble Valley,England,0,0,0
1032,54.03227062151235,-2.236470906212161,BD23 4BB,Craven,England,0,BD,23
1033,54.061613852635354,-2.0565864951883364,BD23 5NU,Craven,England,0,BD,23
1034,54.09069762131876,-1.8765069844570683,HG3 5JL,Craven,England,0,HG,3
1035,54.11953743839737,-1.6961339483753175,0,0,England,0,0,0
1036,54.14811667877552,-1.5155689811926736,HG4 1JD,Ripon,England,0,HG,4
1037,54.17645058026931,-1.334713425971726,YO7 3JA,Hambleton,England,Dalton,YO,7
1038,54.204522805534104,-1.1536691826985916,YO61 4BG,Ryedale,England,Wass,YO,61
1039,54.23234831821856,-0.972337366468664,YO62 7RX,Ryedale,England,Wombleton,YO,62
1040,54.25991107033244,-0.7908201794183579,YO18 8PW,Ryedale,England,Middleton,YO,18
1041,54.287225750224046,-0.6090185120629931,YO13 0LW,Ryedale,England,0,YO,13
1042,54.31427660084449,-0.4270348649929553,YO13 0DE,0,England,Scalby,YO,13
1043,54.341078034125296,-0.2447699075884255,0,0,England,0,0,0
1044,52.76298271894099,-9.279540174792402,0,0,Munster,0,0,0
1045,52.80191860485717,-9.1101624768696,V95 CF30,0,Munster,0,0,0
1046,52.84061940643621,-8.940539951364189,V95 W893,0,Munster,0,0,0
1047,52.87910587477282,-8.770579226522974,0,0,Munster,0,0,0
1048,52.91735593418097,-8.600375370029179,0,0,Munster,0,0,0
1049,52.95537956926177,-8.429882070206931,0,0,Munster,0,0,0
1050,52.99318651464672,-8.25905271217657,0,0,Munster,0,0,0
1051,53.03075507569143,-8.087982899701576,0,0,Munster,0,0,0
1052,53.06810538192375,-7.916578548195801,0,0,Leinster,0,0,0
1053,53.10521599499368,-7.74493561690888,0,0,Leinster,0,0,0
1054,53.142106793358536,-7.572959739851291,0,0,Leinster,0,0,0
1055,53.17875659676201,-7.400747230113088,0,0,Leinster,0,0,0
1056,53.215185031212044,-7.228203442535642,R32 TR72,0,Leinster,0,0,0
1057,53.25137117634098,-7.055425042305022,0,0,Leinster,0,0,0
1058,53.28733440433806,-6.882317107394629,W91 XW6H,0,Leinster,0,0,0
1059,53.323054056513996,-6.708976653243451,W91 X253,0,Leinster,0,0,0
1060,53.358549249880284,-6.535308483322258,W23 AR29,0,Leinster,0,0,0
1061,53.393799589209976,-6.3614099613807955,D15 DE98,0,Leinster,0,0,0
1062,53.42882393498808,-6.1871856188182255,K36 H744,0,Leinster,0,0,0
1063,54.048482568935206,-2.826190744001851,LA1 5QP,Lancaster,England,0,LA,1
1064,54.07863937271048,-2.6467114522184776,0,Lancaster,England,0,0,0
1065,54.108554599960854,-2.466930932173472,LA2 7AL,Craven,England,0,LA,2
1066,54.138211010934995,-2.286950380010396,BD24 0ER,Craven,England,Horton in Ribblesdale,BD,24
1067,54.16762442295039,-2.1066713939920154,BD23 5QB,Craven,England,Arncliffe,BD,23
1068,54.19677788128941,-1.9261954854557783,DL8 4TU,0,England,0,DL,8
1069,54.225686930914875,-1.7454240164109585,HG4 4NN,0,England,0,HG,4
1070,54.25433490378952,-1.5644588100079044,DL8 2TF,Hambleton,England,Snape,DL,8
1071,54.28273707134952,-1.3832009952906794,YO7 4DR,Hambleton,England,Thornton le Moor,YO,7
1072,54.31087705386942,-1.2017527037310498,YO62 5QY,Ryedale,England,0,YO,62
1073,54.33876984810275,-1.0200148347553886,YO62 7JL,Ryedale,England,0,YO,62
1074,54.36639936425186,-0.8380898245543701,YO18 8RR,Ryedale,England,0,YO,18
1075,54.393780323247356,-0.6558783463447703,0,0,England,0,0,0
1076,54.42089692681907,-0.4734831373221297,YO13 0NY,0,England,Ravenscar,YO,13
1077,54.44776361895094,-0.29080464796014915,0,0,England,0,0,0
1078,52.82651247004353,-9.513811531337117,0,0,0,0,0,0
1079,52.86574700199471,-9.344461210801855,0,0,Munster,0,0,0
1080,52.904768517986355,-9.174769188473533,0,0,Munster,0,0,0
1081,52.94355463850971,-9.004830346378895,0,0,Munster,0,0,0
1082,52.982126157456406,-8.834551136546471,0,0,Munster,0,0,0
1083,53.020460947396316,-8.664026802844871,0,0,Munster,0,0,0
1084,53.05856901199501,-8.493210945214377,0,0,Connacht,0,0,0
1085,53.09646010460398,-8.322056858262322,0,0,Connacht,0,0,0
1086,53.13411247930557,-8.150660325941917,0,0,Munster,0,0,0
1087,53.17154630753849,-7.978927082576423,R42 DE61,0,Leinster,0,0,0
1088,53.20874010000834,-7.80695327028439,0,0,Leinster,0,0,0
1089,53.24571377671419,-7.6346443400499915,0,0,Leinster,0,0,0
1090,53.28244610679624,-7.462096790517801,R35 CD82,0,Leinster,0,0,0
1091,53.31895675742682,-7.289215791575775,0,0,Leinster,0,0,0
1092,53.35522475798784,-7.116098196655628,R45 X951,0,Leinster,0,0,0
1093,53.39126952144719,-6.942648896859472,W91 PN28,0,Leinster,0,0,0
1094,53.42707033923063,-6.7689650985674845,A83 PW74,0,Leinster,0,0,0
1095,53.46264636873418,-6.59495141647129,A85 PX32,0,Leinster,0,0,0
1096,53.497977165223716,-6.420705407960756,A84 WK40,0,Leinster,0,0,0
1097,53.53308162916643,-6.246131413758688,A41 HR99,0,Leinster,0,0,0
1098,53.56793958145852,-6.0713273402230605,K34 KX03,0,Leinster,0,0,0
1099,54.1844161206155,-2.6982361057494866,LA6 1NN,South Lakeland,England,Dalton,LA,6
1100,54.21440279865265,-2.518063364203215,LA6 2JW,South Lakeland,England,Casterton,LA,6
1101,54.24413017678051,-2.3376887326991143,LA10 5RW,South Lakeland,England,0,LA,10
1102,54.273614107090594,-2.157013597994272,DL8 3DE,Richmondshire,England,0,DL,8
1103,54.30283759114597,-1.9761396986169464,DL8 4DP,Richmondshire,England,Carperby,DL,8
1104,54.33181620818157,-1.794968183364617,DL8 5JU,Richmondshire,England,0,DL,8
1105,54.360533246990116,-1.6136011052065526,DL10 7NW,Richmondshire,England,0,DL,10
1106,54.389004012770435,-1.4319393782887608,DL6 2SP,Hambleton,England,0,DL,6
1107,54.417212083189355,-1.2500853665152336,DL6 3HT,Hambleton,England,Swainby,DL,6
1108,54.44517248824605,-1.0679397527484986,YO21 2SF,Hambleton,England,0,YO,21
1109,54.47286909611007,-0.8856052082085043,YO21 2LN,0,England,0,YO,21
1110,54.50031666043346,-0.7029821879035292,YO21 3SG,0,England,Lythe,YO,21
1111,54.5274993415009,-0.5201736666377542,0,0,England,0,0,0
1112,53.00758321695021,-9.23968331958198,0,0,Munster,0,0,0
1113,53.04645501342214,-9.06942734294489,0,0,Munster,0,0,0
1114,53.08511194036847,-8.898828811350095,0,0,Connacht,0,0,0
1115,53.12353181838233,-8.727983145234408,0,0,Connacht,0,0,0
1116,53.161724670257826,-8.55684385584521,H62 TE22,0,Connacht,0,0,0
1117,53.199700268130805,-8.385364146948799,0,0,Connacht,0,0,0
1118,53.23743681457624,-8.213639983107827,0,0,Connacht,0,0,0
1119,53.27495452310666,-8.041576916975176,0,0,Leinster,0,0,0
1120,53.312231853248385,-7.869271273983023,0,0,Leinster,0,0,0
1121,53.34928876670477,-7.696628321492419,0,0,Leinster,0,0,0
1122,53.38610398177701,-7.523744744172459,0,0,Leinster,0,0,0
1123,53.42269720696371,-7.3505255263438425,0,0,Leinster,0,0,0
1124,53.45904742116044,-7.177067710179513,0,0,Leinster,0,0,0
1125,53.495174078274964,-7.003275999279469,0,0,Leinster,0,0,0
1126,53.53105641961161,-6.829247791486592,0,0,Leinster,0,0,0
1127,53.56671364311157,-6.654887512065521,C15 VY50,0,Leinster,0,0,0
1128,53.6021252542967,-6.480292912593972,0,0,Leinster,0,0,0
1129,53.637310193776315,-6.3053681424535934,0,0,Leinster,0,0,0
1130,53.67224823309249,-6.130211304917961,0,0,0,0,0,0
1131,54.32022924014645,-2.569458531357506,LA10 5HS,South Lakeland,England,0,LA,10
1132,54.350027926727655,-2.388688257580525,LA10 5PG,South Lakeland,England,0,LA,10
1133,54.37958271552032,-2.2076153907696745,DL11 6LS,Richmondshire,England,0,DL,11
1134,54.40887656413665,-2.0263418975384853,DL11 6PS,Richmondshire,England,0,DL,11
1135,54.43792508622872,-1.8447687126023364,DL11 7LZ,Richmondshire,England,0,DL,11
1136,54.46671152718906,-1.6629981196726364,DL10 6NA,Richmondshire,England,Barton,DL,10
1137,54.495251226122605,-1.4809308171113882,DL2 1DW,0,England,Middleton St George,DL,2
1138,54.52352771785946,-1.2986694022068197,TS17 9LS,0,England,0,TS,17
1139,54.55155606578634,-1.1161143403561935,0,0,England,0,0,0
1140,54.579320095812605,-0.9333685387895896,TS12 2QQ,0,England,0,TS,12
1141,54.60683459445177,-0.7503322333900762,0,0,England,0,0,0
1142,54.63408368031762,-0.5671086375801582,0,0,England,0,0,0
1143,53.14931845022708,-9.13433232567274,0,0,Munster,0,0,0
1144,53.18806114359508,-8.96341364009145,0,0,0,0,0,0
1145,53.226566468276694,-8.792245790739074,0,0,Connacht,0,0,0
1146,53.26484446625904,-8.620782199860281,H65 CD79,0,Connacht,0,0,0
1147,53.30290492852654,-8.448975980051483,0,0,Connacht,0,0,0
1148,53.34072600591187,-8.276923276900199,H53 Y058,0,Connacht,0,0,0
1149,53.37832795416476,-8.104529460809452,0,0,Connacht,0,0,0
1150,53.415689181396544,-7.931891040965638,N37 N1F2,0,Leinster,0,0,0
1151,53.452829691177705,-7.758913100509979,0,0,Leinster,0,0,0
1152,53.4897281507341,-7.585692510602306,0,0,Leinster,0,0,0
1153,53.52640431005293,-7.4121340693821045,N91 VY07,0,Leinster,0,0,0
1154,53.562837097306435,-7.238335008255638,0,0,Leinster,0,0,0
1155,53.59904600750396,-7.064199842689666,N91 PD93,0,Leinster,0,0,0
1156,53.635010231591004,-6.889826162507996,C15 TR64,0,Leinster,0,0,0
1157,53.67074900821496,-6.715118202900015,C15 V3K0,0,Leinster,0,0,0
1158,53.70624179291585,-6.540173910176,C15 XW28,0,Leinster,0,0,0
1159,53.741507566605385,-6.36489724171104,A92 DKR0,0,Leinster,0,0,0
1160,53.77652605123353,-6.1893864982657565,0,0,0,0,0,0
1161,54.36552777725439,-2.9827339608102212,LA22 0LQ,South Lakeland,England,Near Sawrey,LA,22
1162,54.39590128382393,-2.802079681112172,LA8 9QX,South Lakeland,England,0,LA,8
1163,54.426031892668895,-2.6211178642698294,0,Eden,England,0,0,0
1164,54.455902230571155,-2.4399503826723814,CA17 4NT,Eden,England,Newbiggin on Lune,CA,17
1165,54.485528219610636,-2.2584781974995964,CA17 4JD,Eden,England,0,CA,17
1166,54.51489277321582,-2.0768035043454294,DL12 9RH,0,England,0,DL,12
1167,54.54401153960158,-1.8948270229703197,0,0,England,0,0,0
1168,54.57286772052854,-1.7126512687520363,DL2 3UE,0,England,0,DL,2
1169,54.60147668915175,-1.530176723379946,DL1 3LF,0,England,0,DL,1
1170,54.62982193723435,-1.3475062184798894,TS22 5QF,0,England,Wynyard Village,TS,22
1171,54.65791856169289,-1.1645400010796148,TS25 1BT,0,England,Seaton Carew,TS,25
1172,54.6857503459477,-0.9813812154018748,0,0,England,0,0,0
1173,54.71333210951441,-0.7979298772848531,0,0,England,0,0,0
1174,53.25214821534286,-9.199550083648477,H91 RK4C,0,Connacht,0,0,0
1175,53.367931682977115,-8.685030729398537,0,0,Connacht,0,0,0
1176,53.40607737429844,-8.512897096836136,H53 FW64,0,Connacht,0,0,0
1177,53.44398334735013,-8.3405149334343,0,0,Connacht,0,0,0
1178,53.481669900284956,-8.16778942675734,0,0,Connacht,0,0,0
1179,53.5191153895601,-7.994817270192058,0,0,Connacht,0,0,0
1180,53.55633986077856,-7.821503362053533,0,0,Leinster,0,0,0
1181,53.593321929850944,-7.647944760464388,0,0,Leinster,0,0,0
1182,53.6300813884179,-7.474046076759175,0,0,Leinster,0,0,0
1183,53.66659711368784,-7.2999047320757535,0,0,Leinster,0,0,0
1184,53.70288864193596,-7.125425053106451,0,0,Leinster,0,0,0
1185,53.73893511350788,-6.950704822180891,A82 E7F3,0,Leinster,0,0,0
1186,53.77475580792076,-6.7756480837545885,0,0,Leinster,0,0,0
1187,53.810330130491415,-6.600352979422097,A92 YY22,0,Leinster,0,0,0
1188,53.84567710259677,-6.424723273875974,0,0,Leinster,0,0,0
1189,53.880776396352914,-6.248857465942768,0,0,0,0,0,0
1190,54.440458687442245,-3.2162915585873817,0,Copeland,England,0,0,0
1191,54.47116469401236,-3.0354532197105506,LA22 9QN,South Lakeland,England,Grasmere,LA,22
1192,54.501611129957325,-2.8544042054631173,0,Eden,England,0,0,0
1193,54.531814225727814,-2.6730455094152226,CA10 3LB,Eden,England,Shap,CA,10
1194,54.56175656314568,-2.4914792311155702,CA16 6EF,Eden,England,Hoff,CA,16
1195,54.59145409950799,-2.3096061176563465,DL12 0JA,Eden,England,0,DL,12
1196,54.62088970382314,-2.127528594519696,DL12 0NX,0,England,0,DL,12
1197,54.650079059016534,-1.9451471656244563,0,0,England,0,0,0
1198,54.67900532298176,-1.7625645789520783,DL14 0AJ,0,England,Witton le Wear,DL,14
1199,54.7076839030701,-1.5796810986166296,DL16 6YP,0,England,Tudhoe,DL,16
1200,54.73609824774397,-1.396599791548491,TS28 5HR,0,England,Wingate,TS,28
1201,54.76426348759421,-1.2132206854874104,TS24 7EQ,0,England,0,TS,24
1202,53.432534851314315,-8.921705735795431,0,0,Connacht,0,0,0
1203,53.470984235689784,-8.749590899313548,0,0,Connacht,0,0,0
1204,53.50921552186249,-8.57712895632709,0,0,Connacht,0,0,0
1205,53.547206756464384,-8.404416415730733,0,0,Connacht,0,0,0
1206,53.584978280217676,-8.23135828166141,F42 PX00,0,Connacht,0,0,0
1207,53.62250839768516,-8.058051432148341,0,0,Connacht,0,0,0
1208,53.65981719666828,-7.884400580074169,0,0,Leinster,0,0,0
1209,53.696883241521476,-7.7105029709924855,0,0,Leinster,0,0,0
1210,53.733726365704214,-7.5362630288089685,0,0,Leinster,0,0,0
1211,53.770325395219466,-7.361778364887733,0,0,Leinster,0,0,0
1212,53.806699907773066,-7.1869531165051885,0,0,0,0,0,0
1213,53.84282899286871,-7.011885259018179,A82 X8P6,0,0,0,0,0
1214,53.87873197105733,-6.836478645489294,0,0,Leinster,0,0,0
1215,53.914388197190114,-6.660831613345902,0,0,0,0,0,0
1216,53.94981673327242,-6.484847733921411,0,0,Leinster,0,0,0
1217,53.984997201343816,-6.308625704684284,0,0,0,0,0,0
1218,54.32358834266981,-4.530624313179771,IM7 5BH,0,0,Ballaugh,IM,7
1219,54.356110119197815,-4.351271895119228,0,0,0,0,0,0
1220,54.5459987839327,-3.269678070771158,CA13 9UZ,Allerdale,England,Buttermere,CA,13
1221,54.57677855132335,-3.088445400174288,CA12 4TF,Allerdale,England,0,CA,12
1222,54.60729826875064,-2.9070001014439546,CA11 0SA,Eden,England,0,CA,11
1223,54.637574202532605,-2.725242954979876,CA10 2EA,Eden,England,Clifton,CA,10
1224,54.66758888929218,-2.543276288368881,CA10 1TZ,Eden,England,Blencarn,CA,10
1225,54.69735832169353,-2.3610006337426213,CA9 3HF,Eden,England,0,CA,9
1226,54.72686532408702,-2.1785186473798355,DL13 1NG,0,England,Daddry Shield,DL,13
1227,54.75612561425706,-1.9957306164684758,DL13 2YX,0,England,0,DL,13
1228,54.78512230599354,-1.812739522532008,DL13 4HX,0,England,Satley,DL,13
1229,54.8138708409908,-1.6294454112037229,DH7 6LG,0,England,Sacriston,DH,7
1230,54.84235462417514,-1.4459515856868723,DH5 8LU,Sunderland,England,0,DH,5
1231,54.870588819956815,-1.2621578535116813,NE9 7YE,0,England,0,NE,9
1232,53.45769837762613,-9.330929694979636,0,0,Connacht,0,0,0
1233,53.49670055819954,-9.159045500687586,0,0,Connacht,0,0,0
1234,53.53546441195355,-8.986905940979648,0,0,Connacht,0,0,0
1235,53.57400003884692,-8.814464169198374,0,0,Connacht,0,0,0
1236,53.612317286802394,-8.641673022419466,0,0,Connacht,0,0,0
1237,53.650394149991655,-8.468629191810981,0,0,Connacht,0,0,0
1238,53.68825101187309,-8.295237497494023,0,0,Connacht,0,0,0
1239,53.725866124874116,-8.121595002577982,0,0,Connacht,0,0,0
1240,53.763259619160856,-7.9476062339068285,0,0,Connacht,0,0,0
1241,53.800410007289784,-7.773368624929228,0,0,Leinster,0,0,0
1242,53.837337164704856,-7.598786411497993,0,0,Leinster,0,0,0
1243,53.87401986596126,-7.423957395694332,0,0,0,0,0,0
1244,53.910477730360476,-7.248785524736934,0,0,0,0,0,0
1245,53.946689796321316,-7.073368967527789,0,0,0,0,0,0
1246,53.98267542559293,-6.8976113850770036,A81 DK60,0,0,0,0,0
1247,54.01841392231738,-6.7216113111901,A81 X242,0,0,0,0,0
1248,54.053924389292185,-6.5452721231640485,BT35 9DY,0,Northern Ireland,0,BT,35
1249,54.08918639823656,-6.3686927176822286,BT35 8HR,0,Northern Ireland,Jonesborough,BT,35
1250,54.4611707610063,-4.4072650038064625,0,0,0,0,0,0
1251,54.651513425233055,-3.3233405371283684,CA13 9XH,Allerdale,England,0,CA,13
1252,54.6823673083329,-3.1417120033244483,CA12 4QX,Allerdale,England,0,CA,12
1253,54.71296066096797,-2.959868867976984,CA11 0XS,Eden,England,0,CA,11
1254,54.74330978547557,-2.7777116974564224,0,Eden,England,0,0,0
1255,54.77339717303946,-2.59534304826662,CA10 1LA,Eden,England,Renwick,CA,10
1256,54.8032388518413,-2.4126632367031835,CA9 3LD,Eden,England,0,CA,9
1257,54.83281760133439,-2.229775150750533,NE47 9UD,0,England,0,NE,47
1258,54.86214917431081,-2.0465788599737262,DH8 9PS,0,England,0,DH,8
1259,54.89121664021893,-1.8631775803775863,DH8 9JD,0,England,0,DH,8
1260,54.92003547524316,-1.6794711382062883,NE16 5DH,0,England,Sunniside,NE,16
1261,54.94858904053729,-1.495563073905653,NE32 4UD,South Tyneside,England,0,NE,32
1262,54.976892534476356,-1.3113529738718894,NE9 7YE,0,England,0,NE,9
1263,53.521114322106406,-9.568951827532596,0,0,Connacht,0,0,0
1264,53.56041993878175,-9.39709789417825,0,0,Connacht,0,0,0
1265,53.63836012050332,-9.052424995738598,0,0,Connacht,0,0,0
1266,53.67698236212372,-8.879655402682873,H54 K381,0,Connacht,0,0,0
1267,53.715385944423076,-8.706534145983673,0,0,Connacht,0,0,0
1268,53.753548808869155,-8.533158099499097,F45 AW27,0,Connacht,0,0,0
1269,53.79149138182577,-8.359431898736545,0,0,Connacht,0,0,0
1270,53.829191863340355,-8.185452792328629,0,0,Connacht,0,0,0
1271,53.86667042611256,-8.011125120464742,0,0,Connacht,0,0,0
1272,53.90390553065551,-7.8365465049584335,N41 R9T3,0,Connacht,0,0,0
1273,53.940917094565954,-7.661620992975692,H12 CH52,0,Connacht,0,0,0
1274,53.977683840705176,-7.486446577811731,0,0,0,0,0,0
1275,54.01422543013803,-7.310927015975539,H12 E392,0,0,0,0,0
1276,54.05052084995178,-7.135160670438644,H16 Y225,0,0,0,0,0
1277,54.0865895032608,-6.959051009488648,0,0,0,0,0,0
1278,54.122410643250866,-6.782696763861398,A75 YR58,0,0,0,0,0
1279,54.15800341367795,-6.606001116129452,BT35 0DT,0,Northern Ireland,0,BT,35
1280,54.19334733569345,-6.429063162771393,BT35 7HF,0,Northern Ireland,Camlough,BT,35
1281,54.22846129229777,-6.25178580322184,BT345BT,0,Northern Ireland,0,0,0
1282,54.26332507446855,-6.074268497570705,BT31 9PP,0,Northern Ireland,0,BT,31
1283,54.29795730306518,-5.896413864761003,BT31 9JP,0,Northern Ireland,0,BT,31
1284,54.75700605497503,-3.3772832821088863,CA7 2PJ,Allerdale,England,Hayton,CA,7
1285,54.78793441416971,-3.1952573310020767,CA7 1JP,Allerdale,England,Mealsgate,CA,7
1286,54.818601761219355,-3.0130147839611046,CA5 7JN,Carlisle,England,0,CA,5
1287,54.84902443463474,-2.8304559924547528,CA4 0AX,Carlisle,England,Cotehill,CA,4
1288,54.87918487991661,-2.6476837427949675,CA8 9NG,Carlisle,England,Castle Carrock,CA,8
1289,54.90909916091676,-2.4645981345520362,NE49 0QN,0,England,0,NE,49
1290,54.93875001194858,-2.2813022883377565,NE47 5LD,0,England,0,NE,47
1291,54.968153220962975,-2.0976960551882793,NE46 1BU,0,England,0,NE,46
1292,54.99729181282515,-1.9138828865422688,NE43 7XA,0,England,0,NE,43
1293,55.026181298359106,-1.7297623883321844,NE13 8DE,Newcastle upon Tyne,England,Callerton,NE,13
1294,55.05480499470579,-1.5454383392297355,NE27 0BG,North Tyneside,England,Backworth,NE,27
1295,55.08317813435275,-1.3608101035581026,NE9 7YE,0,England,0,NE,9
1296,53.584080265744035,-9.807678852319505,H91 C6P5,0,Connacht,0,0,0
1297,53.623711320069724,-9.635764150209503,H91 W1W4,0,Connacht,0,0,0
1298,53.663104808044025,-9.463588160193504,0,0,Connacht,0,0,0
1299,53.74121988304899,-9.118264414214696,0,0,Connacht,0,0,0
1300,53.77992911276715,-8.945166118517148,F12 KF89,0,Connacht,0,0,0
1301,53.8184194031542,-8.771713850200998,F45 PV27,0,Connacht,0,0,0
1302,53.856668642729225,-8.598004666226327,F45 XT73,0,Connacht,0,0,0
1303,53.894697300931355,-8.423943016889227,0,0,Connacht,0,0,0
1304,53.93248352518243,-8.249626336784079,0,0,Connacht,0,0,0
1305,53.9700475308849,-8.07495877882984,N41 AK66,0,Connacht,0,0,0
1306,54.00736772626214,-7.900038153670554,0,0,Connacht,0,0,0
1307,54.04446407123254,-7.724768319151252,0,0,Connacht,0,0,0
1308,54.08131523671629,-7.549247460274183,H14 YY97,0,0,0,0,0
1309,54.11794092570983,-7.37337914218627,0,0,0,0,0,0
1310,54.154320073721074,-7.1972619224492975,H23 FK29,0,0,0,0,0
1311,54.19047212539718,-7.020799075957871,0,0,0,0,0,0
1312,54.22637628271947,-6.844089530926914,0,0,0,0,0,0
1313,54.26205173056907,-6.667036274515919,BT60 2NG,Armagh,Northern Ireland,0,BT,60
1314,54.29747793928094,-6.489738603575806,BT60 1RQ,0,Northern Ireland,Markethill,BT,60
1315,54.33267383256438,-6.3120992201197055,BT323LN,0,Northern Ireland,0,0,0
1316,54.36761915098187,-6.134217787506402,BT25 2PJ,0,Northern Ireland,0,BT,25
1317,54.402332555676786,-5.955996725261371,0,0,Northern Ireland,0,0,0
1318,54.436794059306095,-5.777536061010434,BT24 7EQ,0,Northern Ireland,0,BT,24
1319,54.47102205906478,-5.598737934521838,0,0,Northern Ireland,0,0,0
1320,54.8934778226166,-3.2490829444369806,0,Allerdale,England,0,0,0
1321,54.92421952497125,-3.0664394083333675,CA5 6BT,Carlisle,England,Burgh by Sands,CA,5
1322,54.95471610717018,-2.8834773963819016,CA6 4LZ,Carlisle,England,Smithfield,CA,6
1323,54.984949968785905,-2.7002999255939093,CA8 2JW,Carlisle,England,0,CA,8
1324,55.0149372094935,-2.5168068779224293,CA8 7JB,0,England,0,CA,8
1325,55.04466051822227,-2.3331016075290014,NE48 3EE,0,England,0,NE,48
1326,55.07413571823356,-2.1490837460120122,NE48 4EB,0,England,Gunnerton,NE,48
1327,55.10334578956632,-1.9648569811974532,NE19 2DD,0,England,Capheaton,NE,19
1328,55.13230627783415,-1.7803206977804789,NE61 3YL,0,England,Whalton,NE,61
1329,55.161000455923435,-1.5955789136434184,NE62 5QT,0,England,Guide Post,NE,62
1330,55.189443590582506,-1.4105307700942342,NE9 7YE,0,England,0,NE,9
1331,53.68654954765404,-9.87513629648599,0,0,Connacht,0,0,0
1332,53.726269155649135,-9.702900865275426,0,0,Connacht,0,0,0
1333,53.765750888357026,-9.53040200218562,F28 V672,0,Connacht,0,0,0
1334,53.805015888036834,-9.357544729960962,0,0,Connacht,0,0,0
1335,53.844041604784785,-9.184425715591509,0,0,Connacht,0,0,0
1336,53.88283819712829,-9.010997840631916,0,0,Connacht,0,0,0
1337,53.921415570525006,-8.83721366357166,0,0,Connacht,0,0,0
1338,53.95975156029974,-8.663170424880017,0,0,Connacht,0,0,0
1339,53.997866679137175,-8.488772389044259,0,0,Connacht,0,0,0
1340,54.03573902158696,-8.314117177054655,F52 RK40,0,Connacht,0,0,0
1341,54.07338884592421,-8.139108753943836,0,0,Connacht,0,0,0
1342,54.11079450783511,-7.9638451196476625,0,0,Connacht,0,0,0
1343,54.147976009728886,-7.788229942055977,0,0,0,0,0,0
1344,54.18491197033661,-7.612361598366974,BT92 9JZ,0,Northern Ireland,Derrylin,BT,92
1345,54.22162213475482,-7.436143461712913,BT92 0BN,0,Northern Ireland,0,BT,92
1346,54.25808538666347,-7.2596742847627365,BT92 7JS,0,Northern Ireland,Roslea / Rosslea,BT,92
1347,54.294321212410296,-7.082857148347063,0,0,0,0,0,0
1348,54.33030876252297,-6.9057911787051465,0,0,0,0,0,0
1349,54.366067263174955,-6.728379166894082,BT71 7NJ,Armagh,Northern Ireland,0,BT,71
1350,54.40157613363505,-6.550720610711077,BT618PX,Armagh,Northern Ireland,0,0,0
1351,54.43685433848789,-6.372718014040143,BT65 5HS,0,Northern Ireland,0,BT,65
1352,54.471881567630824,-6.194471244111849,BT670PB,0,Northern Ireland,0,0,0
1353,54.50667652265665,-6.015882520308298,BT27 5JA,0,Northern Ireland,Hillhall,BT,27
1354,54.5412191659717,-5.837052077054915,BT23 6BB,0,Northern Ireland,Moneyreagh,BT,23
1355,54.5755279347859,-5.657881851975532,BT23 8SR,0,Northern Ireland,0,BT,23
1356,55.029811906806,-3.12014430890048,DG14 0YD,0,Scotland,Kirkpatrick Fleming,DG,14
1357,55.060382759363115,-2.9367774745901074,0,Carlisle,England,0,0,0
1358,55.09069039763617,-2.7531931593215653,CA6 6PF,Carlisle,England,0,CA,6
1359,55.12075095727742,-2.5692910265361086,0,0,England,0,0,0
1360,55.150547081586325,-2.3851746648678684,NE48 1LN,0,England,0,NE,48
1361,55.18009462928685,-2.200743485565842,NE48 2JB,0,England,0,NE,48
1362,55.20937653534724,-2.016101413797763,NE61 4LB,0,England,0,NE,61
1363,55.23840838032115,-1.831147612092887,NE65 8RT,0,England,Wingates,NE,65
1364,55.26717339259724,-1.6459863385302038,NE61 5BB,0,England,Red Row,NE,61
1365,55.29568687333341,-1.4605165104571485,0,0,England,0,0,0
1366,53.82879106186132,-9.770366999157783,0,0,Connacht,0,0,0
1367,53.8683614184439,-9.597544435137717,0,0,Connacht,0,0,0
1368,53.90771477771463,-9.424361116926585,0,0,Connacht,0,0,0
1369,53.946828535868704,-9.25091389108514,0,0,Connacht,0,0,0
1370,53.985712871091025,-9.077155547919086,F26 A392,0,Connacht,0,0,0
1371,54.02437770815236,-8.903038552361828,0,0,Connacht,0,0,0
1372,54.062800828934,-8.728660328803679,0,0,Connacht,0,0,0
1373,54.10100278953905,-8.553924955316186,F56 P089,0,Connacht,0,0,0
1374,54.138961631394814,-8.378930239724621,0,0,Connacht,0,0,0
1375,54.17669765582139,-8.203579958549684,0,0,Connacht,0,0,0
1376,54.2141891657168,-8.027972301485823,0,0,0,0,0,0
1377,54.25145620615292,-7.852010745823412,BT92 1DY,0,Northern Ireland,0,BT,92
1378,54.28847734341985,-7.6757938614513925,BT92 2AB,0,Northern Ireland,Arney,BT,92
1379,54.32527236488552,-7.499224828824397,BT94 5GR,0,Northern Ireland,Lisbellaw,BT,94
1380,54.3618201021494,-7.3224025962417665,BT75 0SA,0,Northern Ireland,0,BT,75
1381,54.398140083430455,-7.1452300497885135,BT76 0AA,0,Northern Ireland,Clogher,BT,76
1382,54.43421140754956,-6.967806514280193,BT696DX,0,Northern Ireland,0,0,0
1383,54.47005334214242,-6.790034583971303,BT70 1AE,0,Northern Ireland,0,BT,70
1384,54.505645255158186,-6.612013958186393,BT71 6NW,0,Northern Ireland,Maghery,BT,71
1385,54.54100615222585,-6.433646941961593,0,0,Northern Ireland,0,0,0
1386,54.57611567232376,-6.25503360700974,BT29 4NA,0,Northern Ireland,0,BT,29
1387,54.61099255766234,-6.0760759718322905,BT29 4HX,Belfast,Northern Ireland,0,BT,29
1388,54.64561672014329,-5.896874478294513,BT37 9SY,0,Northern Ireland,0,BT,37
1389,54.680006637158534,-5.717330861120077,BT19 1JS,0,Northern Ireland,Crawfordsburn,BT,19
1390,54.71414249541972,-5.537545929974098,BT21 0BD,0,Northern Ireland,0,BT,21
1391,54.91380973122622,-4.452642487267358,DG8 9JH,0,Scotland,0,DG,8
1392,54.9462136394877,-4.270855219812758,DG7 2BP,0,Scotland,0,DG,7
1393,54.97837616799906,-4.088736703747856,DG7 2PN,0,Scotland,Laurieston,DG,7
1394,55.01027876321146,-3.906389371518692,DG7 3DB,0,Scotland,Kirkpatrick Durham,DG,7
1395,55.041938421583154,-3.723713449567571,DG2 8NR,0,Scotland,0,DG,2
1396,55.07333687458833,-3.5408117230691487,DG1 3SE,0,Scotland,Collin,DG,1
1397,55.13538235139696,-3.1741338781664004,DG11 2QE,0,Scotland,Tundergarth,DG,11
1398,55.16602784148271,-2.9903605960218567,DG13 0HJ,0,Scotland,Kirkstyle,DG,13
1399,55.196409622315855,-2.8063677890097742,TD9 0SA,0,Scotland,Newcastleton,TD,9
1400,55.2265438656819,-2.622054901150983,NE48 1EJ,0,England,0,NE,48
1401,55.256413169001036,-2.4375257564878408,NE48 1RY,0,England,0,NE,48
1402,55.28603342661434,-2.252679544993978,NE19 1RD,0,England,Rochester,NE,19
1403,55.315387528171094,-2.0676204301465115,NE65 7AJ,0,England,0,NE,65
1404,55.34449108931777,-1.8822473513656803,NE65 7PY,0,England,0,NE,65
1405,55.37332729369847,-1.6966648079269198,NE66 2YB,0,England,Shilbottle,NE,66
1406,55.4019114770316,-1.5107714922569953,0,0,England,0,0,0
1407,54.010376393294116,-9.491506821757943,0,0,Connacht,0,0,0
1408,54.04957857395843,-9.317730521036328,0,0,Connacht,0,0,0
1409,54.088551033519146,-9.143640825615204,F26 ND73,0,Connacht,0,0,0
1410,54.12730371612817,-8.969190106520681,0,0,Connacht,0,0,0
1411,54.1658143499731,-8.794475972471053,0,0,Connacht,0,0,0
1412,54.20410353474878,-8.619402314515362,F56 VA03,0,Connacht,0,0,0
1413,54.24214925850902,-8.444067127748292,F91 DH2K,0,Connacht,0,0,0
1414,54.27997186579179,-8.268373999552999,0,0,Connacht,0,0,0
1415,54.31754960645483,-8.09242130984484,0,0,Connacht,0,0,0
1416,54.35490256840503,-7.9161123446702275,0,0,Northern Ireland,0,0,0
1417,54.39200926523859,-7.739545867099472,0,0,Northern Ireland,0,0,0
1418,54.4288895267667,-7.562624864246273,BT94 2JF,0,Northern Ireland,0,BT,94
1419,54.46552213225464,-7.385448480559599,0,0,Northern Ireland,0,0,0
1420,54.501926651963714,-7.207919406696765,BT79 0RE,0,Northern Ireland,0,BT,79
1421,54.538082132753885,-7.030137166597912,BT70 3AW,0,Northern Ireland,0,BT,70
1422,54.57400788389331,-6.8520041570140275,BT70 3JE,0,Northern Ireland,0,BT,70
1423,54.609683221757024,-6.673620279374681,BT71 5NY,0,Northern Ireland,0,BT,71
1424,54.64512719318771,-6.494887639148453,BT80 0HT,0,Northern Ireland,0,BT,80
1425,54.715278583160284,-6.1365787182253815,BT39 0AT,0,Northern Ireland,0,BT,39
1426,54.74998464584058,-5.957004904353568,BT39 9NQ,0,Northern Ireland,Straid,BT,39
1427,54.78445609177246,-5.7770866025889465,BT38 9LF,0,Northern Ireland,Ballycarry,BT,38
1428,54.953095749554436,-4.873268560476324,DG8 0AX,0,Scotland,New Luce,DG,8
1429,54.986086270630075,-4.691608357048676,0,0,Scotland,0,0,0
1430,55.018818338579166,-4.509712855183603,DG8 6DA,0,Scotland,0,DG,8
1431,55.05130041826271,-4.327533060493183,0,0,Scotland,0,0,0
1432,55.083540699927816,-4.145019684986464,DG7 3SE,0,Scotland,New Galloway,DG,7
1433,55.11552058179125,-3.962275385611591,0,0,Scotland,0,0,0
1434,55.14725709810456,-3.779200174217676,DG2 0SS,0,Scotland,Dunscore,DG,2
1435,55.17873193261239,-3.5958970634550607,DG1 1AG,0,Scotland,Ae,DG,1
1436,55.20996184547501,-3.4122657991214864,DG11 2SL,0,Scotland,Johnstonebridge,DG,11
1437,55.2409288078005,-3.2284097464248345,DG11 2LS,0,Scotland,0,DG,11
1438,55.27164930435186,-3.0442283884200068,0,0,Scotland,0,0,0
1439,55.302105595423576,-2.8598254396021208,0,0,Scotland,0,0,0
1440,55.33231388909094,-2.675100123660186,TD9 9TB,0,Scotland,0,TD,9
1441,55.36225673664405,-2.4901565009809348,TD8 6PT,0,Scotland,0,TD,8
1442,55.39195006819606,-2.3048935393337042,NE65 7BX,0,England,0,NE,65
1443,55.42137672782761,-2.119415641473596,NE66 4NZ,0,England,0,NE,66
1444,55.450552366431324,-1.9336215227655533,NE66 4LP,0,England,Branton,NE,66
1445,55.47946012265826,-1.7476159246825835,NE66 2JU,0,England,0,NE,66
1446,55.508115366938995,-1.5612973137673474,0,0,England,0,0,0
1447,54.073467408231345,-9.73282135913821,0,0,Connacht,0,0,0
1448,54.11299863029087,-9.558983425068265,0,0,Connacht,0,0,0
1449,54.1522896157485,-9.384877191284373,0,0,Connacht,0,0,0
1450,54.19135058230839,-9.210455264602416,0,0,Connacht,0,0,0
1451,54.23019149357168,-9.035669921788935,0,0,Connacht,0,0,0
1452,54.268790023781214,-8.860618956292006,0,0,Connacht,0,0,0
1453,54.30716681639736,-8.68520607153162,F91 W996,0,Connacht,Raghly,0,0
1454,54.345299805848256,-8.509529450301423,F91 EN29,0,Connacht,0,0,0
1455,54.383209380063114,-8.333492490221461,0,0,Connacht,0,0,0
1456,54.420873735606285,-8.157193761885704,0,0,Connacht,0,0,0
1457,54.458313003392455,-7.980536359452003,0,0,Northern Ireland,0,0,0
1458,54.495505644070136,-7.803619239658282,0,0,Northern Ireland,0,0,0
1459,54.532471530065784,-7.626345195613672,BT93 0AL,0,Northern Ireland,0,BT,93
1460,54.569189388055975,-7.448813568431993,0,0,Northern Ireland,0,0,0
1461,54.60567883051586,-7.270926852660186,BT79 7LT,0,Northern Ireland,0,BT,79
1462,54.64191885208921,-7.0927847719075245,BT79 9LG,0,Northern Ireland,0,BT,79
1463,54.67792880384755,-6.914289524719853,BT80 9NT,0,Northern Ireland,0,BT,80
1464,54.713687950335924,-6.735541215205963,BT80 9XA,0,Northern Ireland,0,BT,80
1465,54.74921537978075,-6.5564417485463355,BT45 6LL,0,Northern Ireland,0,BT,45
1466,54.854320866082745,-6.017445002898245,0,0,Northern Ireland,0,0,0
1467,54.88887422321808,-5.837150725173568,BT40 2QG,0,Northern Ireland,Drains Bay,BT,40
1468,54.92317267781263,-5.6566108050928525,0,0,Northern Ireland,0,0,0
1469,55.05791727342918,-4.931418991584334,0,0,Scotland,0,0,0
1470,55.09098723106607,-4.74936918733524,KA26 0QT,0,Scotland,Barrhill,KA,26
1471,55.12379828318584,-4.567081937326712,DG8 6TB,0,Scotland,0,DG,8
1472,55.15635891159538,-4.384508144311912,0,0,Scotland,0,0,0
1473,55.188677323006594,-4.201598415200996,DG7 3TA,0,Scotland,0,DG,7
1474,55.220734867146405,-4.01845563225109,0,0,Scotland,0,0,0
1475,55.25254861622121,-3.834979591857981,DG3 4AE,0,Scotland,0,DG,3
1476,55.28410020599118,-3.651273534986729,0,0,Scotland,0,0,0
1477,55.31540643407728,-3.467236990031274,DG10 9SG,0,Scotland,Beattock,DG,10
1478,55.34644922412285,-3.28297355351251,0,0,Scotland,0,0,0
1479,55.3772450978489,-3.0983824891504015,0,0,Scotland,0,0,0
1480,55.40777626861916,-2.9135677457423568,TD9 7LZ,0,Scotland,Roberton,TD,9
1481,55.43805898095592,-2.728428325731409,TD9 8LH,0,Scotland,Cavers,TD,9
1482,55.46807573976682,-2.5430685267852726,TD8 6NU,0,Scotland,0,TD,8
1483,55.49784251109259,-2.357387093537128,TD5 8AH,0,Scotland,0,TD,5
1484,55.52734209319403,-2.171488668989492,NE71 6TP,0,England,0,NE,71
1485,55.556590172363755,-1.985271743502622,NE71 6AQ,0,England,0,NE,71
1486,55.58556984200997,-1.7988413017494809,NE70 7HN,0,England,0,NE,70
1487,55.61429650742734,-1.6120955834219028,NE68 7SZ,0,England,0,NE,68
1488,54.136125467302435,-9.974761154864986,0,0,0,0,0,0
1489,54.21558471863435,-9.62679604894347,0,0,Connacht,0,0,0
1490,54.254964896991616,-9.452359012061851,0,0,Connacht,0,0,0
1491,54.294114759041776,-9.277603962954418,0,0,Connacht,0,0,0
1492,54.333044287904436,-9.102483083769805,0,0,0,0,0,0
1493,54.37173110362289,-8.9270943530921,0,0,0,0,0,0
1494,54.41019589359952,-8.751341286096157,0,0,0,0,0,0
1495,54.48641346946347,-8.398940463151977,0,0,0,0,0,0
1496,54.524164829861405,-8.222294676160741,0,0,0,0,0,0
1497,54.56169079367272,-8.045287794349782,0,0,0,0,0,0
1498,54.59896976834039,-7.868018968616563,0,0,0,0,0,0
1499,54.636021669081146,-7.690390797391558,BT81 7SD,0,Northern Ireland,0,BT,81
1500,54.672825169724376,-7.512502818974703,BT78 4PT,0,Northern Ireland,0,BT,78
1501,54.7093999251333,-7.334257331109213,BT79 7TE,0,Northern Ireland,0,BT,79
1502,54.74572487747643,-7.155754257624506,0,0,Northern Ireland,0,0,0
1503,54.78181941980203,-6.976895598148656,0,0,Northern Ireland,0,0,0
1504,54.81766276456558,-6.797781660050843,BT45 7HG,0,Northern Ireland,0,BT,45
1505,54.853274041549966,-6.618314147491584,BT46 5TT,0,Northern Ireland,Culnady,BT,46
1506,54.88863273543978,-6.438593749272903,BT44 8EG,0,Northern Ireland,Portglenone,BT,44
1507,54.92375771131383,-6.258521876809282,BT43 6QS,0,Northern Ireland,0,BT,43
1508,54.95862872802132,-6.0781995981096415,0,0,Northern Ireland,0,0,0
1509,54.993264384510326,-5.897528034639532,0,0,Northern Ireland,0,0,0
1510,55.19586253875958,-4.807434868183551,KA26 0TR,0,Scotland,0,KA,26
1511,55.228752958941286,-4.624754400677959,KA26 9UA,0,Scotland,0,KA,26
1512,55.26139251918964,-4.441785116993102,0,0,Scotland,0,0,0
1513,55.293789442740184,-4.2584775184897,0,0,Scotland,0,0,0
1514,55.32592503057057,-4.0749347135513885,0,0,Scotland,0,0,0
1515,55.35781639300613,-3.8910562822469834,DG4 6HW,0,Scotland,Mennock,DG,4
1516,55.389445117563724,-3.7069456947064494,ML12 6TH,0,Scotland,0,ML,12
1517,55.4208280394877,-3.5225022610278733,0,0,Scotland,0,0,0
1518,55.4519470346985,-3.337829809928205,0,0,Scotland,0,0,0
1519,55.48281866203632,-3.1528273848821264,TD7 5NQ,0,Scotland,0,TD,7
1520,55.51342508767686,-2.9675991699054918,TD7 5JJ,0,Scotland,Ettrickbridge,TD,7
1521,55.54378259274903,-2.782043945266848,TD7 4QA,0,Scotland,0,TD,7
1522,55.57387363552166,-2.5962662468642614,TD6 0RP,0,Scotland,Maxton,TD,6
1523,55.60371421812112,-2.4101645952483084,TD5 8JB,0,Scotland,Sprouston,TD,5
1524,55.63328709273322,-2.2238438746516684,TD12 4QB,0,England,Cornhill on Tweed,TD,12
1525,55.6626079812068,-2.03720234946566,TD15 2QD,0,England,0,TD,15
1526,55.69165993145335,-1.850345248579452,0,0,England,0,0,0
1527,55.72045838378621,-1.663170583852161,0,0,England,0,0,0
1528,54.31813254595546,-9.694946337205833,0,0,Connacht,0,0,0
1529,54.35760230654722,-9.520177632586725,0,0,0,0,0,0
1530,54.39684145383021,-9.34508857509599,0,0,0,0,0,0
1531,54.435859990511894,-9.169631251904908,0,0,0,0,0,0
1532,54.66503383874021,-8.110368334743027,F94 P028,0,0,0,0,0
1533,54.702399538969615,-7.932746742960247,0,0,0,0,0,0
1534,54.73953784617985,-7.7547633619623175,0,0,0,0,0,0
1535,54.77642738109352,-7.576517927752339,0,0,0,0,0,0
1536,54.8130878411366,-7.397912540575862,BT82 8NF,0,Northern Ireland,0,BT,82
1537,54.849498115742136,-7.2190473250295355,BT82 0QF,0,Northern Ireland,0,BT,82
1538,54.88567764010908,-7.039824081110259,BT47 4TD,0,Northern Ireland,Feeny,BT,47
1539,54.92160557434269,-6.8603433200251125,BT47 4QN,0,Northern Ireland,0,BT,47
1540,54.9573010899553,-6.680506544181847,BT51 5PQ,0,Northern Ireland,Swatragh,BT,51
1541,54.992743619680326,-6.50041464929636,BT537JL,0,Northern Ireland,0,0,0
1542,55.027952069895846,-6.319968842921465,BT44 9BL,0,Northern Ireland,0,BT,44
1543,55.062906147913075,-6.139270403059949,0,0,Northern Ireland,0,0,0
1544,55.09762449354004,-5.958220245220344,0,0,Northern Ireland,0,0,0
1545,55.33368029562029,-4.682731960899319,KA19 8LJ,0,Scotland,0,KA,19
1546,55.36639917257683,-4.4993656934230195,KA6 7JB,0,Scotland,Patna,KA,6
1547,55.398874992430464,-4.3156587087125065,KA18 1BG,0,Scotland,0,KA,18
1548,55.43108900714874,-4.131714342094319,KA18 3JA,0,Scotland,0,KA,18
1549,55.46305836534055,-3.947431956434321,0,0,Scotland,0,0,0
1550,55.49476460601918,-3.762915251876843,ML12 6SH,0,Scotland,Crawfordjohn,ML,12
1551,55.52622460221555,-3.5780633193294786,ML12 6QD,0,Scotland,0,ML,12
1552,55.55742018186757,-3.39298022058799,ML12 6QJ,0,Scotland,0,ML,12
1553,55.588367941096436,-3.2075647779686736,EH45 8SL,0,Scotland,0,EH,45
1554,55.61904999863097,-3.021921411621989,0,0,Scotland,Walkerburn,0,0
1555,55.64948267236689,-2.8359486787106234,TD1 2ND,0,Scotland,0,TD,1
1556,55.679648373676436,-2.6497513543127984,TD4 6AU,0,Scotland,Legerwood,TD,4
1557,55.70956314093007,-2.4632277339469333,TD10 6XN,0,Scotland,Greenlaw,TD,10
1558,55.739209679981975,-2.276482944059469,TD11 3LU,0,Scotland,0,TD,11
1559,55.76860374839404,-2.0894150221052508,TD15 1TG,0,Scotland,Paxton,TD,15
1560,55.79772834832564,-1.902129442207176,0,0,England,0,0,0
1561,54.380839078086005,-9.938262126861863,0,0,0,0,0,0
1562,54.460199732235104,-9.58833470805748,0,0,0,0,0,0
1563,54.7683400370194,-8.175779673195647,0,0,0,0,0,0
1564,54.80579285580589,-7.997804259003551,0,0,0,0,0,0
1565,54.84301796265481,-7.819464589178858,F93 Y27K,0,0,0,0,0
1566,54.879993924921294,-7.6408605979405175,0,0,0,0,0,0
1567,54.916740482769356,-7.461894187341916,0,0,0,0,0,0
1568,54.953236472635105,-7.282665683289964,BT47 3QZ,Derry,Northern Ireland,0,BT,47
1569,54.98950137204278,-7.1030766854362675,BT47 3DY,0,Northern Ireland,0,BT,47
1570,55.02551428848527,-6.923227909399527,BT49 9NN,0,Northern Ireland,0,BT,49
1571,55.06129443537817,-6.743020655101018,BT51 5EQ,0,Northern Ireland,0,BT,51
1572,55.096821193241254,-6.562556025775333,BT53 7PT,0,Northern Ireland,0,BT,53
1573,55.13211350992464,-6.38173502436037,BT53 8RS,0,Northern Ireland,0,BT,53
1574,55.16715104093882,-6.200659139489055,0,0,Northern Ireland,0,0,0
1575,55.20195246712346,-6.019229079940167,0,0,Scotland,0,0,0
1576,55.47137680223694,-4.557251598178295,KA6 5HS,0,Scotland,0,KA,6
1577,55.50393190433234,-4.373143709520998,KA5 5JL,0,Scotland,0,KA,5
1578,55.536224730923564,-4.188796240352003,KA18 3NH,0,Scotland,0,KA,18
1579,55.568272469068326,-4.004108335455896,0,0,Scotland,0,0,0
1580,55.60005660901453,-3.819183925839965,ML11 9PB,0,Scotland,Douglas Water,ML,11
1581,55.63159406174348,-3.6339218823242017,ML12 6NY,0,Scotland,Thankerton,ML,12
1582,55.66286660694947,-3.4484265006654113,ML12 6HL,0,Scotland,0,ML,12
1583,55.69389087819695,-3.2625963811057237,EH45 8PR,0,Scotland,0,EH,45
1584,55.724648946507614,-3.0765361808463205,EH44 6NW,0,Scotland,0,EH,44
1585,55.75515716670458,-2.8901442330097287,TD1 2TJ,0,Scotland,0,TD,1
1586,55.78539790300433,-2.7035255528044777,TD2 6QX,0,Scotland,0,TD,2
1587,55.81538723018037,-2.5165782097642,TD11 3PG,0,Scotland,Longformacus,TD,11
1588,55.84510780749718,-2.32940757353346,TD11 3RH,0,Scotland,0,TD,11
1589,55.87457542838686,-2.1419114536598234,TD14 5PZ,0,Scotland,Coldingham,TD,14
1590,55.90377304899994,-1.9541955705186145,0,0,Scotland,0,0,0
1591,54.7958095121366,-8.597281550709662,0,0,0,0,0,0
1592,54.8338242453685,-8.419588490296015,0,0,0,0,0,0
1593,54.87161265701255,-8.241526938166842,0,0,0,0,0,0
1594,54.909152993335425,-8.063196630614033,0,0,0,0,0,0
1595,54.94646529898122,-7.884499577973785,0,0,0,0,0,0
1596,54.983528087673044,-7.705535913199407,F92 W8CY,0,0,0,0,0
1597,55.02036114249084,-7.526207339446804,0,0,0,0,0,0
1598,55.05694324660858,-7.346614384482418,0,0,0,0,0,0
1599,55.09329392005289,-7.166658446887287,0,0,Northern Ireland,0,0,0
1600,55.12939221743847,-6.986440447272245,BT49 0JB,0,Northern Ireland,0,BT,49
1601,55.165257394260436,-6.805861482326868,BT51 4RH,0,Northern Ireland,Castlerock,BT,51
1602,55.20086877855866,-6.625022863416537,BT56 8JW,0,Northern Ireland,0,BT,56
1603,55.236245359830676,-6.44382538809917,BT57 8SR,0,Northern Ireland,0,BT,57
1604,55.27136674151953,-6.2623707562818876,BT54 6AN,0,Northern Ireland,0,BT,54
1605,55.306251645671104,-6.08055946922883,0,0,Northern Ireland,0,0,0
1606,55.60896357251607,-4.430937268681856,KA3 6HS,0,Scotland,0,KA,3
1607,55.64133560188765,-4.24618513392244,KA17 0AA,0,Scotland,0,KA,17
1608,55.673462110095656,-4.061090122353971,0,0,Scotland,0,0,0
1609,55.70532453835677,-3.8757563967064144,ML8 5QF,0,Scotland,Rosebank,ML,8
1610,55.73693983576898,-3.690082606800985,ML11 8EX,0,Scotland,Braehead,ML,11
1611,55.768289733517896,-3.5041732832494916,0,0,Scotland,0,0,0
1612,55.79939090277596,-3.317926803289748,EH26 9LU,0,Scotland,0,EH,26
1613,55.83022536659345,-3.131448062102044,EH24 9ED,0,Scotland,Carrington,EH,24
1614,55.860809516884146,-2.9446351678197997,EH37 5UT,0,Scotland,Pathhead,EH,37
1615,55.89112567044537,-2.757593376744854,EH41 4JZ,0,Scotland,Gifford,EH,41
1616,55.921189938615214,-2.5702205314584874,TD11 3SW,0,Scotland,0,TD,11
1617,55.95098493380621,-2.382622245801148,TD13 5XG,0,Scotland,0,TD,13
1618,55.98052648548049,-2.1946961004271515,0,0,Scotland,0,0,0
1619,56.009797503518755,-2.006548062996913,0,0,Scotland,0,0,0
1620,54.97484958942854,-8.307611889183118,0,0,0,0,0,0
1621,55.01247784374798,-8.1289256211983,0,0,0,0,0,0
1622,55.049877748851706,-7.949870095415328,0,0,0,0,0,0
1623,55.08702776456514,-7.770545644035852,0,0,0,0,0,0
1624,55.12394771706255,-7.590853770612331,F92 PP6R,0,0,0,0,0
1625,55.16061633598937,-7.4108952053158275,F93 C9X6,0,0,0,0,0
1626,55.19705318405222,-7.230571144930716,0,0,0,0,0,0
1627,55.3048842804207,-6.6878169485605286,0,0,Northern Ireland,0,0,0
1628,55.34034552606576,-6.506241722295054,0,0,Northern Ireland,0,0,0
1629,55.51391974411777,-5.593893215408532,0,0,Scotland,0,0,0
1630,55.61508213339813,-5.042789842945907,KA27 8HH,0,Scotland,0,KA,27
1631,55.71396792286208,-4.4890411779337365,KA3 5JY,0,Scotland,0,KA,3
1632,55.74641954777951,-4.303882813325778,G76 0QA,0,Scotland,0,G,76
1633,55.77862521803292,-4.118379106164157,G72 9UB,0,Scotland,0,G,72
1634,55.8105663255406,-3.9326344517603524,ML1 5LQ,0,Scotland,0,ML,1
1635,55.8422598576841,-3.7465472780229514,ML7 5PZ,0,Scotland,Harthill,ML,7
1636,55.8736874968737,-3.5602223513121967,EH54 7BW,0,Scotland,Polbeth,EH,54
1637,55.904865952055104,-3.3735578249286164,EH27 8EG,City of Edinburgh,Scotland,Ratho,EH,27
1638,55.93577719804146,-3.186658832959856,EH9 1UH,City of Edinburgh,Scotland,0,EH,9
1639,55.96643766400086,-2.9994232575982807,EH32 9BS,0,Scotland,0,EH,32
1640,55.99682961904657,-2.811956597202329,EH39 5AT,0,Scotland,0,EH,39
1641,56.02696921124344,-2.6241564664301364,EH42 1XP,0,Scotland,0,EH,42
1642,56.05683900588818,-2.4361287243165624,TD10 6UR,0,Scotland,0,TD,10
1643,56.0864548686333,-2.2477707216332394,0,0,Scotland,0,0,0
1644,55.11576529807964,-8.194993002075153,0,0,0,0,0,0
1645,55.15325320480341,-8.015577916634308,F92 H0CY,0,0,0,0,0
1646,55.190490849656896,-7.835891569167853,0,0,0,0,0,0
1647,55.227498102087814,-7.6558352629183055,F92 NN88,0,0,0,0,0
1648,55.26425363794522,-7.475509931002008,0,0,0,0,0,0
1649,55.300777062794154,-7.294816567679812,F93 PFX6,0,0,0,0,0
1650,55.33704732469037,-7.1138565052724,0,0,0,0,0,0
1651,55.37308376381944,-6.9325304317664145,0,0,0,0,0,0
1652,55.65245325620813,-5.470947469752193,PA28 6QL,0,Scotland,0,PA,28
1653,55.719814414206255,-5.102415087899268,KA27 8HH,0,Scotland,0,KA,27
1654,55.81894288012676,-4.5474572395364365,PA9 1DY,0,Scotland,Howwood,PA,9
1655,55.851474495218476,-4.361891079707939,G52 2BB,Glasgow,Scotland,0,G,52
1656,55.88375972137681,-4.175977086649668,G33 1LS,Glasgow,Scotland,0,G,33
1657,55.91577990095274,-3.9898198891124212,ML6 7SU,0,Scotland,0,ML,6
1658,55.94755205977887,-3.8033176921756704,FK1 3AR,0,Scotland,Slamannan,FK,1
1659,55.97905783122194,-3.616575498840916,EH49 7QG,0,Scotland,0,EH,49
1660,56.01031396216691,-3.4294912375355597,KY11 2XP,0,Scotland,0,KY,11
1661,56.04130237892236,-3.2421702821826806,KY3 9DW,0,Scotland,0,KY,3
1662,56.07203954807498,-3.0545102880785664,0,0,Scotland,0,0,0
1663,56.132722992014294,-2.67838779351331,0,0,Scotland,0,0,0
1664,56.16266796967065,-2.489928784041559,TD10 6UR,0,Scotland,0,TD,10
1665,55.25659493295552,-8.081628269481213,0,0,0,0,0,0
1666,55.293920615178116,-7.901578901271943,0,0,0,0,0,0
1667,55.440825700050134,-7.178066964559407,0,0,0,0,0,0
1668,55.75699351386049,-5.531691600345793,0,0,Scotland,0,0,0
1669,55.79088254692945,-5.347179733227903,0,0,Scotland,0,0,0
1670,55.824519477105596,-5.162361975983261,KA27 8HH,0,Scotland,0,KA,27
1671,55.923891826480855,-4.606190329693079,PA14 6YE,0,Scotland,Langbank,PA,14
1672,55.956503832435494,-4.420214786929068,G81 6DR,0,Scotland,Duntocher,G,81
1673,55.98886901441028,-4.233888894924482,G66 7AE,0,Scotland,0,G,66
1674,56.02096866491598,-4.047317516738323,FK6 5JH,0,Scotland,0,FK,6
1675,56.052819848406365,-3.860398633690143,FK7 8BE,0,Scotland,Torwood,FK,7
1676,56.084404148932215,-3.6732374863271575,FK10 4AT,0,Scotland,0,FK,10
1677,56.115738351486385,-3.4857317772532075,KY12 9LP,0,Scotland,Steelend,KY,12
1678,56.14680433360118,-3.2979871211671257,KY5 0AB,0,Scotland,0,KY,5
1679,55.895475710946386,-5.4078514633347,KA27 8HH,0,Scotland,0,KA,27
1680,56.028812680028295,-4.665242321564582,G84 9EE,0,Scotland,0,G,84
1681,56.06150547947009,-4.4788558070058375,G63 0HT,0,Scotland,Drymen,G,63
1682,56.093951019123246,-4.292116401582488,FK8 3LR,0,Scotland,Buchlyvie,FK,8
1683,56.12613054138397,-4.105129203529502,FK8 3BN,0,Scotland,Gargunnock,FK,8
1684,56.15806114949761,-3.917791969472928,FK9 4NJ,Stirling,Scotland,0,FK,9
1685,56.1897243779253,-3.7302101784095116,FK13 6DW,0,Scotland,0,FK,13
1686,56.221137049936715,-3.542281306166081,KY13 0NA,0,Scotland,0,KY,13
1687,56.25228099401485,-3.3541112091572702,KY13 9SP,0,Scotland,Gateside,KY,13
1688,56.28317275208492,-3.165597085974232,KY15 7UR,0,Scotland,Ladybank,KY,15
1689,56.313794448595345,-2.9768451669650684,KY15 5ST,0,Scotland,0,KY,15
1690,56.344162342774716,-2.787752377125386,KY16 9AR,0,Scotland,0,KY,16
1691,56.37425885696622,-2.598425317109152,0,0,Scotland,0,0,0
1692,55.89713407976201,-6.023743072605567,0,0,Scotland,0,0,0
1693,56.000037073007746,-5.468850086305914,PA31 8LZ,0,Scotland,0,PA,31
1694,56.03383959750446,-5.2832281922662725,PA21 2DH,0,Scotland,Largiemore,PA,21
1695,56.06737910832601,-5.097348477728242,0,0,Scotland,0,0,0
1696,56.10066424252182,-4.9111609000612315,PA24 8AG,0,Scotland,Carrick Castle,PA,24
1697,56.16647735516115,-4.537816023360403,FK8 3TS,0,Scotland,0,FK,8
1698,56.19900365631092,-4.350661488731206,FK8 3UY,0,Scotland,0,FK,8
1699,56.23126345312159,-4.163256829996136,FK17 8LR,0,Scotland,Keltie Bridge,FK,17
1700,56.263273887801475,-3.9754995781513633,0,0,Scotland,0,0,0
1701,56.29501644494655,-3.7874954515461474,PH4 1QE,0,Scotland,Blackford,PH,4
1702,56.3265079862729,-3.599141698273884,PH2 0QN,0,Scotland,Dunning,PH,2
1703,56.3577302909395,-3.4105444174047186,PH2 8QR,0,Scotland,0,PH,2
1704,56.38869993879254,-3.2216005777143653,PH2 7TE,0,Scotland,Errol,PH,2
1705,56.41939900551317,-3.032416655500608,DD6 8SA,0,Scotland,Kirkton of Balmerino,DD,6
1706,56.44984378771655,-2.84288934388403,0,0,0,0,0,0
1707,55.966519562340096,-6.271036433299763,0,0,Scotland,0,0,0
1708,56.00141421924795,-6.086271397040564,0,0,Scotland,0,0,0
1709,56.03604827147551,-5.901240415775572,0,0,Scotland,0,0,0
1710,56.13845591729878,-5.344154481040307,0,0,Scotland,0,0,0
1711,56.17207838251233,-5.157868057977695,PA32 8YP,0,Scotland,Furnace,PA,32
1712,56.20544602825873,-4.971271278589043,0,0,Scotland,0,0,0
1713,56.238567229179786,-4.7843136734467695,G83 7BF,0,Scotland,Succoth,G,83
1714,56.271422835494086,-4.597100423116141,FK8 3TY,0,Scotland,0,FK,8
1715,56.30403030815354,-4.40952912056855,FK17 8HU,0,Scotland,0,FK,17
1716,56.33637078849254,-4.221705337001565,0,0,Scotland,0,0,0
1717,56.36846145785627,-4.03352637683052,PH6 2LD,0,Scotland,0,PH,6
1718,56.40028375069566,-3.8450981986718036,PH7 4HD,0,Scotland,0,PH,7
1719,56.43185456734561,-3.656317821914047,PH1 3RX,0,Scotland,0,PH,1
1720,56.46315563736202,-3.4672915892348333,PH1 4PP,0,Scotland,Luncarty,PH,1
1721,56.4942035786827,-3.277916238602897,PH13 9LQ,0,Scotland,Kinrossie,PH,13
1722,56.52498041794344,-3.0882984932552016,DD3 0QN,0,Scotland,Auchterhouse,DD,3
1723,56.555502489314726,-2.89833481342576,DD8 2JW,0,Scotland,0,DD,8
1724,56.174846918989594,-5.777960374206551,PA33 1BW,0,Scotland,0,PA,33
1725,56.24304028466321,-5.405412143115083,0,0,Scotland,0,0,0
1726,56.27674611784499,-5.218717483376847,0,0,Scotland,0,0,0
1727,56.310196688031255,-5.031709948136869,0,0,Scotland,0,0,0
1728,56.34340038699257,-4.844338957711028,0,0,Scotland,0,0,0
1729,56.376338013484755,-4.656709927067683,FK20 8RJ,0,Scotland,Crianlarich,FK,20
1730,56.40902706828065,-4.468720223812926,0,0,Scotland,0,0,0
1731,56.44144864176261,-4.280475656936518,0,0,Scotland,0,0,0
1732,56.47361995458642,-4.0918733033230215,0,0,Scotland,0,0,0
1733,56.50552239077752,-3.903019362765499,0,0,Scotland,0,0,0
1734,56.53717288946188,-3.713810624977324,PH8 0EA,0,Scotland,Trochry,PH,8
1735,56.568553130312424,-3.5243536771907786,PH8 0HJ,0,Scotland,Butterstone,PH,8
1736,56.59967976952921,-3.3345450255767792,PH10 7AL,0,Scotland,0,PH,10
1737,56.6305347844236,-3.1444916412966677,PH12 8RQ,0,Scotland,Ruthven,PH,12
1738,56.66113454689038,-2.9540897506868498,DD8 5QL,0,Scotland,Padanaram,DD,8
1739,56.69146133385645,-2.7634467051787808,DD9 6TB,0,Scotland,Aberlemno,DD,9
1740,56.72153123154921,-2.572458455061208,DD10 9LH,0,Scotland,Bridge of Dun,DD,10
1741,56.75132681847303,-2.3812327282280097,0,0,Scotland,0,0,0
1742,56.38138566294268,-5.2799018993408415,0,0,Scotland,0,0,0
1743,56.414919576772085,-5.092482032358715,PA33 1AN,0,Scotland,0,PA,33
1744,56.448206192346795,-4.9046960538641775,0,0,Scotland,0,0,0
1745,56.481226256674155,-4.716649614073988,PA36 4AF,0,Scotland,0,PA,36
1746,56.51399731052599,-4.528239854285256,0,0,Scotland,0,0,0
1747,56.54650039304721,-4.3395728221630065,0,0,Scotland,0,0,0
1748,56.5787527643807,-4.1505453660963125,0,0,Scotland,0,0,0
1749,56.61073575784162,-3.961263927976016,PH15 2ND,0,Scotland,Dull,PH,15
1750,56.64246635152186,-3.771625066854672,PH15 2QR,0,Scotland,Little Ballinluig,PH,15
1751,56.673926174927274,-3.581735615478694,0,0,Scotland,0,0,0
1752,56.70513192269328,-3.3914918472149016,0,0,Scotland,0,0,0
1753,56.73606552252361,-3.2010009821470797,PH11 8PY,0,Scotland,0,PH,11
1754,56.766743384208745,-3.010159011687241,DD8 4QP,0,Scotland,0,DD,8
1755,56.79714773564347,-2.8190735395875937,DD9 7UW,0,Scotland,0,DD,9
1756,56.82729470040205,-2.6276402791160645,DD9 7UY,0,Scotland,Edzell Woods,DD,9
1757,56.85716680854867,-2.4359672138736284,AB30 1RR,0,Scotland,0,AB,30
1758,56.48599491801221,-5.341423324176242,0,0,Scotland,0,0,0
1759,56.51961259672638,-5.153589549171723,PA35 1JT,0,Scotland,0,PA,35
1760,56.55298254954326,-4.96538697913783,0,0,Scotland,0,0,0
1761,56.586085471434544,-4.7769215003831205,0,0,Scotland,0,0,0
1762,56.61893894334954,-4.588090026949269,0,0,Scotland,0,0,0
1763,56.65152395290878,-4.398998846058114,0,0,Scotland,0,0,0
1764,56.68385779991939,-4.209544576635539,PH16 5QB,0,Scotland,Kinloch Rannoch,PH,16
1765,56.715921766699715,-4.0198339035902375,PH16 5NY,0,Scotland,Tummel Bridge,PH,16
1766,56.747732870483006,-3.8297631543251383,PH16 5RN,0,Scotland,0,PH,16
1767,56.779272690322244,-3.6394394080596713,0,0,Scotland,0,0,0
1768,56.81055795946205,-3.4487587043468357,PH10 7QD,0,Scotland,Spittal of Glenshee,PH,10
1769,56.84157055571345,-3.2578285131908293,0,0,Scotland,0,0,0
1770,56.87232692693463,-3.0665445900488324,0,0,Scotland,0,0,0
1771,56.90280925170429,-2.8750147920310867,DD9 7YY,0,Scotland,0,DD,9
1772,56.93303369111374,-2.6831345943337386,0,0,Scotland,0,0,0
1773,56.96298272650402,-2.4910122373417094,0,0,Scotland,0,0,0
1774,56.99267223083714,-2.2985429199032352,AB39 3TB,0,Scotland,0,AB,39
1775,57.02208499019533,-2.1058352616925333,AB12 4AA,0,Scotland,Downies,AB,12
1776,56.48791242110571,-5.966207269561965,PA72 6JQ,0,Scotland,Salen,PA,72
1777,56.522391339758556,-5.778872203678881,PA80 5XT,0,Scotland,Lochaline,PA,80
1778,56.556615128938844,-5.5912135383770085,0,0,Scotland,0,0,0
1779,56.62427546331088,-5.215035597446716,0,0,Scotland,0,0,0
1780,56.657729177516316,-5.0264148245783975,PH50 4RJ,0,Scotland,0,PH,50
1781,56.69091538022558,-4.837528668872689,PH49 4HY,0,Scotland,0,PH,49
1782,56.723851692745455,-4.648273816162583,0,0,Scotland,0,0,0
1783,56.75651905088251,-4.4587567941109105,0,0,Scotland,0,0,0
1784,56.788934794286526,-4.268873991205607,0,0,Scotland,0,0,0
1785,56.82108015398989,-4.078732336296393,0,0,Scotland,0,0,0
1786,56.85297218654415,-3.8882279241404736,0,0,Scotland,0,0,0
1787,56.88459242026078,-3.6974680813928233,0,0,Scotland,0,0,0
1788,56.91595762716886,-3.5063486127753576,0,0,Scotland,0,0,0
1789,56.9470496348989,-3.3149772392148233,0,0,Scotland,0,0,0
1790,56.977884929550285,-3.1232494791753025,AB35 5SU,0,Scotland,0,AB,35
1791,57.00844564009879,-2.9312734441671338,0,0,Scotland,0,0,0
1792,57.038747965324326,-2.7389443702556338,AB34 5DX,0,Scotland,0,AB,34
1793,57.06877433755921,-2.5463707556917874,AB31 4BQ,0,Scotland,0,AB,31
1794,57.09854066689228,-2.3534475580805294,AB31 5DY,0,Scotland,Drumoak,AB,31
1795,57.128029691007825,-2.1602836584145195,AB15 7TY,Aberdeen,Scotland,0,AB,15
1796,56.62676855459899,-5.841903397227327,PA80 5XF,0,Scotland,0,PA,80
1797,56.66107787201896,-5.653832792628197,0,0,Scotland,0,0,0
1798,56.69512140218612,-5.465489662168221,0,0,Scotland,0,0,0
1799,56.76244579175186,-5.0877827175842025,PH33 6SY,0,Scotland,0,PH,33
1800,56.79571570209422,-4.89847423878449,0,0,Scotland,0,0,0
1801,56.82873528133123,-4.708794332654121,0,0,Scotland,0,0,0
1802,56.861485413163244,-4.518849768183535,0,0,Scotland,0,0,0
1803,56.89398347726251,-4.328536702440893,0,0,Scotland,0,0,0
1804,56.926210653083686,-4.137962309143177,0,0,Scotland,0,0,0
1805,56.95818403667479,-3.947022449398412,0,0,Scotland,0,0,0
1806,56.989885105314634,-3.7558246982632095,0,0,Scotland,0,0,0
1807,57.02133066999317,-3.564264624603517,0,0,Scotland,0,0,0
1808,57.0525025078701,-3.3724502012748983,0,0,Scotland,0,0,0
1809,57.08341714346058,-3.180276708702233,AB35 5UQ,0,Scotland,0,AB,35
1810,57.11405665584813,-2.9878525138426144,0,0,Scotland,0,0,0
1811,57.14443728167405,-2.795072612563442,AB31 4RY,0,Scotland,0,AB,31
1812,57.17454140397357,-2.602045762069131,AB51 7RX,0,Scotland,Millbank,AB,51
1813,57.204384970133326,-2.4086666776333243,AB51 0YD,0,Scotland,0,AB,51
1814,57.23395066915258,-2.215044502695427,AB21 0HT,0,Scotland,0,AB,21
1815,57.26325415780076,-2.0210736759805306,AB23 8SJ,0,Scotland,Balmedie,AB,23
1816,56.69646246060845,-6.093439330613568,PH36 4LH,0,Scotland,Kilchoan,PH,36
1817,56.731113738793404,-5.905284142719394,0,0,Scotland,0,0,0
1818,56.765509017676564,-5.716800055157735,PH38 4ND,0,Scotland,0,PH,38
1819,56.799638044500114,-5.528040897471347,0,0,Scotland,0,0,0
1820,56.833509580565995,-5.338955866053782,0,0,Scotland,0,0,0
1821,56.86713210423544,-5.1494938224233495,PH33 7JG,0,Scotland,Corpach,PH,33
1822,56.900486152623266,-4.959761366244582,PH34 4EG,0,Scotland,Highbridge,PH,34
1823,56.93358942829665,-4.769654724046172,0,0,Scotland,0,0,0
1824,56.96642276255496,-4.579280907035242,0,0,Scotland,0,0,0
1825,56.999003575274,-4.388535839871239,PH20 1AJ,0,Scotland,0,PH,20
1826,57.03131299403629,-4.197526942067535,PH20 1BS,0,Scotland,0,PH,20
1827,57.0633681545658,-4.006149840072145,PH21 1NS,0,Scotland,0,PH,21
1828,57.09515048281489,-3.814512358312888,0,0,Scotland,0,0,0
1829,57.126676828912146,-3.622509828767218,PH22 1RB,0,Scotland,0,PH,22
1830,57.15792891925336,-3.4302504772298192,0,0,Scotland,0,0,0
1831,57.18892331694554,-3.237629345032342,AB36 8YP,0,Scotland,0,AB,36
1832,57.21964205088769,-3.0447550556299574,AB36 8TS,0,Scotland,0,AB,36
1833,57.25010139575665,-2.8515223636167994,0,0,Scotland,0,0,0
1834,57.28028368499962,-2.65804028624329,AB33 8BS,0,Scotland,0,AB,33
1835,57.31020490347311,-2.4642032953554196,AB51 5HH,0,Scotland,Chapel of Garioch,AB,51
1836,57.339847691201584,-2.270120797973361,AB51 0BP,0,Scotland,Udny Green,AB,51
1837,57.36922774184958,-2.075686987266709,0,0,Scotland,0,0,0
1838,56.83542296945323,-5.969015454365701,0,0,Scotland,0,0,0
1839,56.86990464361114,-5.780116347902816,PH38 4NB,0,Scotland,0,PH,38
1840,56.904119600219595,-5.590939599541825,0,0,Scotland,0,0,0
1841,56.93807661858925,-5.401434295041628,0,0,Scotland,0,0,0
1842,56.97178419459068,-5.211549182631504,0,0,Scotland,0,0,0
1843,57.00522281212965,-5.021391101452855,0,0,Scotland,0,0,0
1844,57.03841021467753,-4.830856046932933,PH34 4EA,0,Scotland,0,PH,34
1845,57.0713271808369,-4.640051273378536,0,0,Scotland,0,0,0
1846,57.10399117086839,-4.448872472052297,0,0,Scotland,0,0,0
1847,57.13638326018693,-4.257427309187492,0,0,Scotland,0,0,0
1848,57.16852062437204,-4.065611175561959,0,0,Scotland,0,0,0
1849,57.20038463775472,-3.8735321459390897,PH22 1RN,0,Scotland,0,PH,22
1850,57.23199218978017,-3.681085314375786,PH25 3EF,0,Scotland,0,PH,25
1851,57.263324955786025,-3.4883791606113816,PH26 3NP,0,Scotland,0,PH,26
1852,57.29439953764727,-3.2953084858305544,AB37 9JP,0,Scotland,0,AB,37
1853,57.32519791378513,-3.1019821710335598,AB54 4HY,0,Scotland,0,AB,54
1854,57.355736397086275,-2.9082947284660365,0,0,Scotland,0,0,0
1855,57.38599727111753,-2.714355436513141,0,0,Scotland,0,0,0
1856,57.41599655837771,-2.520058522496734,AB51 8YS,0,Scotland,Fisherford,AB,51
1857,57.44571684962551,-2.325513658148413,AB41 7HY,0,Scotland,Woodhead,AB,41
1858,57.475173875590755,-2.130614789964815,AB53 6SL,0,Scotland,Auchnagatt,AB,53
1859,57.504350536253796,-1.9354719788218355,AB42 4XL,0,Scotland,Longside,AB,42
1860,57.008573013723776,-5.654193385658152,PH41 4PP,0,Scotland,0,PH,41
1861,57.04261595648625,-5.464266180107434,0,0,Scotland,0,0,0
1862,57.07640902633634,-5.273956341878875,0,0,Scotland,0,0,0
1863,57.10993265366845,-5.083370950451915,0,0,Scotland,0,0,0
1864,57.143204623045044,-4.8924057691635285,0,0,Scotland,0,0,0
1865,57.17620566006993,-4.701168296322282,PH32 4WA,0,Scotland,Fort Augustus,PH,32
1866,57.20895326557379,-4.509553988782463,IV2 6UN,0,Scotland,Whitebridge,IV,2
1867,57.241428462502405,-4.317670760440657,0,0,Scotland,0,0,0
1868,57.27364846647437,-4.125413765370493,0,0,Scotland,0,0,0
1869,57.305594599898306,-3.9328913296560133,PH23 3AY,0,Scotland,0,PH,23
1870,57.33728379171775,-3.7399983083772117,0,0,Scotland,0,0,0
1871,57.36869766591201,-3.5468434362451555,PH26 3PL,0,Scotland,0,PH,26
1872,57.399852863303956,-3.3533212732190663,AB37 9AS,0,Scotland,Ballindalloch,AB,37
1873,57.43073131153762,-3.159540958913669,AB55 4ER,0,Scotland,Kirktown of Mortlach,AB,55
1874,57.4613493618876,-2.965396762125745,AB55 5PW,0,Scotland,0,AB,55
1875,57.491689247742,-2.7709982234871298,AB54 8AE,0,Scotland,0,AB,54
1876,57.52176702941801,-2.5762393246735087,AB53 4LD,0,Scotland,0,AB,53
1877,57.55156524811151,-2.381230003282681,AB53 5TN,0,Scotland,0,AB,53
1878,57.58109967179175,-2.185863957994838,AB42 4PL,0,Scotland,Old Deer,AB,42
1879,57.61035315150938,-1.9902515191566623,AB43 8RB,0,Scotland,0,AB,43
1880,57.63934116151472,-1.7942861066601654,0,0,Scotland,0,0,0
1881,57.147123664789184,-5.5274526463307305,0,0,Scotland,0,0,0
1882,57.18100267076109,-5.336716432174673,0,0,Scotland,0,0,0
1883,57.21461174931113,-5.145702051897753,0,0,Scotland,0,0,0
1884,57.24796872627969,-4.954305035758736,0,0,Scotland,0,0,0
1885,57.28105427396881,-4.76263312696383,0,0,Scotland,0,0,0
1886,57.31388593396457,-4.570581546948189,0,0,Scotland,0,0,0
1887,57.346444676440925,-4.378258458209311,IV2 6XS,0,Scotland,Inverfarigaig,IV,2
1888,57.378747757239275,-4.185558777083107,IV2 6YJ,0,Scotland,Inverarnie,IV,2
1889,57.4107764465437,-3.992591081954004,0,0,Scotland,0,0,0
1890,57.4425477129781,-3.799249987869041,0,0,Scotland,0,0,0
1891,57.47404312886178,-3.6056444855332335,IV36 2QH,0,Scotland,0,IV,36
1892,57.505279374145786,-3.411668892602004,AB38 7SG,0,Scotland,Dallas,AB,38
1893,57.53623832539631,-3.217432608369505,AB38 7AG,0,Scotland,Rothes,AB,38
1894,57.566936372454045,-3.0228296570832085,AB55 6QP,0,Scotland,0,AB,55
1895,57.59735569822898,-2.827969842729684,AB55 6NE,0,Scotland,0,AB,55
1896,57.627512401032725,-2.6327469002161155,AB45 3AR,0,Scotland,Ladysbridge,AB,45
1897,57.65738897220014,-2.4372710341578507,AB45 3EP,0,Scotland,0,AB,45
1898,57.687001217113924,-2.2414356942747156,AB43 6HX,0,Scotland,Pennan,AB,43
1899,57.71633193759834,-2.0453514815790106,AB43 7HS,0,Scotland,Sandhaven,AB,43
1900,57.74539664472672,-1.848911564838753,0,0,Scotland,0,0,0
1901,57.14816437904589,-6.162365571877228,0,0,Scotland,0,0,0
1902,57.28556482531071,-5.399832770614768,IV40 8EA,0,Scotland,0,IV,40
1903,57.31925980024927,-5.208387714825004,0,0,Scotland,0,0,0
1904,57.35270222933011,-5.016557147308152,0,0,Scotland,0,0,0
1905,57.38587273124785,-4.824449057066046,0,0,Scotland,0,0,0
1906,57.41878888853055,-4.631958429096454,IV4 7JS,0,Scotland,Struy,IV,4
1907,57.45143161827509,-4.439193675438099,IV5 7PH,0,Scotland,0,IV,5
1908,57.48381821673057,-4.246049473647951,IV3 5LE,Inverness,Scotland,0,IV,3
1909,57.51592990155167,-4.052634655393799,IV2 7JJ,0,Scotland,Tornagrain,IV,2
1910,57.547783681225866,-3.858843594625728,IV12 5SB,0,Scotland,0,IV,12
1911,57.57936107610839,-3.6647855390687205,IV36 2SQ,0,Scotland,0,IV,36
1912,57.61067880545972,-3.4703545629877794,IV30 8UT,0,Scotland,Alves,IV,30
1913,57.64171869446492,-3.2756603264259367,IV30 8QN,0,Scotland,0,IV,30
1914,57.67249717171026,-3.080596607972367,IV32 7PJ,0,Scotland,Spey Bay,IV,32
1915,57.70299636932517,-2.885273476081444,AB56 4QE,0,Scotland,Findochty,AB,56
1916,57.733232423793325,-2.689584417760748,AB38 9RN,0,Scotland,0,AB,38
1917,57.76318777628735,-2.493639905800216,0,0,Scotland,0,0,0
1918,57.792878269778875,-2.2973331398062755,0,0,Scotland,0,0,0
1919,57.32173957585641,-5.846105323390027,0,0,Scotland,0,0,0
1920,57.35604296363947,-5.654902660928341,IV52 8TN,0,Scotland,Plockton,IV,52
1921,57.39009518365643,-5.463308713883929,IV54 8YT,0,Scotland,0,IV,54
1922,57.42387650393822,-5.27143128788357,0,0,Scotland,0,0,0
1923,57.4574048334474,-5.079165444037279,0,0,Scotland,0,0,0
1924,57.4906607369627,-4.8866194180424545,0,0,Scotland,0,0,0
1925,57.523661838142345,-4.6936879574338,0,0,Scotland,0,0,0
1926,57.55638900069775,-4.5004797247341255,IV7 8DL,0,Scotland,Maryburgh,IV,7
1927,57.58885956147234,-4.306889157672445,IV7 8GY,0,Scotland,Killen,IV,7
1928,57.621054685283575,-4.113025342186093,IV10 8SL,0,Scotland,0,IV,10
1929,57.65299142066723,-3.918782410056095,0,0,Scotland,0,0,0
1930,57.68465123570726,-3.724269867057246,0,0,Scotland,0,0,0
1931,57.71605088915646,-3.5293815429691486,AB38 9RN,0,Scotland,0,AB,38
1932,57.74717215451243,-3.334227359657551,IV31 6NU,0,Scotland,0,IV,31
1933,57.778031499288005,-3.1387008489356814,AB38 9RN,0,Scotland,0,AB,38
1934,57.80861100452668,-2.9429123448438954,AB38 9RN,0,Scotland,0,AB,38
1935,57.39141153341505,-6.102092755728598,0,0,Scotland,0,0,0
1936,57.42606282417074,-5.910804068346669,0,0,Scotland,0,0,0
1937,57.52846155403983,-5.33483615991218,0,0,Scotland,0,0,0
1938,57.562076236128185,-5.1421333063836165,0,0,Scotland,0,0,0
1939,57.595417992453974,-4.94914758153587,0,0,Scotland,0,0,0
1940,57.62850448799518,-4.755773494407285,IV23 2PZ,0,Scotland,Garve,IV,23
1941,57.66131653276668,-4.562119958950128,0,0,Scotland,0,0,0
1942,57.69387150439415,-4.3680811720086234,0,0,Scotland,0,0,0
1943,57.7261505145471,-4.1737664747789065,IV18 0LS,0,Scotland,0,IV,18
1944,57.758170651995755,-3.9790697557927057,IV20 1US,0,Scotland,Hill of Fearn,IV,20
1945,57.31800013959736,-7.121094565344339,0,0,Scotland,0,0,0
1946,57.495609205793365,-6.1675862112312485,IV51 9HX,0,Scotland,0,IV,51
1947,57.599055645010225,-5.591350810063484,0,0,Scotland,0,0,0
1948,57.6330110151386,-5.398603542699503,0,0,Scotland,0,0,0
1949,57.666712502812786,-5.205461953006171,0,0,Scotland,0,0,0
1950,57.700140564044894,-5.012034772770908,0,0,Scotland,0,0,0
1951,57.7333129053221,-4.818216271503147,0,0,Scotland,0,0,0
1952,57.766210282650874,-4.624115615523616,0,0,Scotland,0,0,0
1953,57.7988501146268,-4.429626759735366,0,0,Scotland,0,0,0
1954,57.8312134594599,-4.234859301576727,0,0,Scotland,0,0,0
1955,57.863317446340936,-4.039706885250161,IV25 3AP,0,Scotland,0,IV,25
1956,57.89514343788005,-3.8442795357253208,0,0,Scotland,0,0,0
1957,57.42171522945944,-7.189066285601043,0,0,Scotland,0,0,0
1958,57.564677369446365,-6.42530510851344,0,0,Scotland,0,0,0
1959,57.5997763684257,-6.233456820860118,IV51 9JF,0,Scotland,0,IV,51
1960,57.63460537272666,-6.041312084848004,0,0,Scotland,0,0,0
1961,57.73753182470879,-5.4627413300349446,0,0,Scotland,0,0,0
1962,57.771320580910434,-5.269159238916985,0,0,Scotland,0,0,0
1963,57.80483540905483,-5.075288807388005,IV23 2SB,0,Scotland,0,IV,23
1964,57.838094057332384,-4.881024064371621,0,0,Scotland,0,0,0
1965,57.871077227422255,-4.686474429515874,0,0,Scotland,0,0,0
1966,57.90380237908231,-4.491533614701472,IV24 3BP,0,Scotland,0,IV,24
1967,57.93625051674464,-4.296311474613018,IV24 3AT,0,Scotland,0,IV,24
1968,57.968438810210905,-4.100701408018506,IV28 3XB,0,Scotland,Pittentrail,IV,28
1969,57.52539352410554,-7.257424138711782,HS6 5HP,0,Scotland,0,HS,6
1970,57.738827633428066,-6.107130648244399,0,0,Scotland,0,0,0
1971,57.84202003833805,-5.5272508297454985,IV22 2NB,0,Scotland,Laide,IV,22
1972,57.87589652696075,-5.33322647881285,IV23 2QY,0,Scotland,0,IV,23
1973,57.90949858500324,-5.1389110066356185,IV26 2XJ,0,Scotland,0,IV,26
1974,57.94284400255303,-4.9441982004952285,0,0,Scotland,0,0,0
1975,57.9759134266422,-4.749197734319327,IV27 4BQ,0,Scotland,0,IV,27
1976,58.00872435838314,-4.5538030758854315,0,0,Scotland,0,0,0
1977,58.0412577481105,-4.358124338122491,0,0,Scotland,0,0,0
1978,58.07353080642736,-4.162054673258835,IV28 3YG,0,Scotland,0,IV,28
1979,58.105524789204466,-3.965704629630849,0,0,Scotland,0,0,0
1980,58.137256615019595,-3.7689670479655684,0,0,Scotland,0,0,0
1981,57.66535024159617,-7.134903210320887,HS6 5AS,0,Scotland,Lochportain,HS,6
1982,57.946475333919885,-5.592135597351263,0,0,Scotland,0,0,0
1983,57.980440022852704,-5.397667219932875,0,0,Scotland,0,0,0
1984,58.01412977778524,-5.202904909053616,0,0,Scotland,0,0,0
1985,58.047562430897685,-5.007742209288494,0,0,Scotland,0,0,0
1986,58.0807185742522,-4.812289049799191,0,0,Scotland,0,0,0
1987,58.11361575050939,-4.616438653171008,0,0,Scotland,0,0,0
1988,58.14623485558406,-4.420301391578026,0,0,Scotland,0,0,0
1989,58.17859314107256,-4.2237701695953165,0,0,Scotland,0,0,0
1990,58.21067180899443,-4.026955798812397,KW11 6UB,0,Scotland,0,KW,11
1991,58.242487818355464,-3.8297508698678686,0,0,Scotland,0,0,0
1992,58.27402267951893,-3.6322666299887856,0,0,Scotland,0,0,0
1993,58.30529305739224,-3.434395360044828,KW6 6EN,0,Scotland,0,KW,6
1994,57.76904656197975,-7.20362529304833,0,0,Scotland,0,0,0
1995,58.152249028308994,-5.071659663461002,0,0,Scotland,0,0,0
1996,58.18549236026532,-4.875751939133564,0,0,Scotland,0,0,0
1997,58.21847624955578,-4.679443899765934,0,0,Scotland,0,0,0
1998,58.251181537349844,-4.482846177780834,IV27 4AD,0,Scotland,0,IV,27
1999,58.283625516430504,-4.285851428977855,IV27 4UH,0,Scotland,0,IV,27
2000,58.31578933464111,-4.088570729250627,KW11 6UF,0,Scotland,0,KW,11
2001,58.34768999160686,-3.890896418002433,KW13 6YT,0,Scotland,0,KW,13
2002,58.379308944102974,-3.6929400108148367,0,0,Scotland,0,0,0
2003,58.41066289707861,-3.4945935348896,0,0,Scotland,0,0,0
2004,58.44173361848466,-3.295968941529268,KW1 5XG,0,Scotland,Watten,KW,1
2005,58.47253751709557,-3.096957950021189,KW1 4RJ,0,Scotland,0,KW,1
2006,57.94491189252646,-6.887533777905379,HS3 3AN,0,Scotland,0,HS,3
2007,57.980635096096236,-6.694328283053885,HS2 9JL,0,Scotland,0,HS,2
2008,58.25690347669636,-5.135954179659682,0,0,Scotland,0,0,0
2009,58.290234470704355,-4.939590009458535,0,0,Scotland,0,0,0
2010,58.32330554567022,-4.742822412849803,0,0,Scotland,0,0,0
2011,58.35609748768946,-4.545762283510866,0,0,Scotland,0,0,0
2012,58.38862763092662,-4.348302027335009,0,0,Scotland,0,0,0
2013,58.42087706872064,-4.150552985574162,0,0,Scotland,0,0,0
2014,58.452862841509145,-3.952407245240453,0,0,Scotland,0,0,0
2015,58.48456635215169,-3.753976591372768,0,0,Scotland,0,0,0
2016,58.516004345830204,-3.5551527963243243,KW14 7YH,0,Scotland,0,KW,14
2017,58.547158537188004,-3.3560480849468886,0,0,Scotland,0,0,0
2018,58.57804537464224,-3.1565539192505065,0,0,Scotland,0,0,0
2019,58.08453461444756,-6.762561469590452,0,0,Scotland,0,0,0
2020,58.12008849318512,-6.568558678204041,HS2 9PJ,0,Scotland,Laxay,HS,2
2021,58.15537001819061,-6.374245094180646,HS2 9NN,0,Scotland,Ranais,HS,2
2022,58.394944587538824,-5.0038069125242615,0,0,Scotland,0,0,0
2023,58.42810332499133,-4.806577834232909,0,0,Scotland,0,0,0
2024,58.460982396919604,-4.60905334018842,0,0,Scotland,0,0,0
2025,58.49359917906615,-4.411125585238166,IV27 4XN,0,Scotland,Tongue,IV,27
2026,58.525934709934255,-4.212906177049736,KW14 7SR,0,Scotland,Bettyhill,KW,14
2027,58.55800607096828,-4.014286949079181,KW14 7SB,0,Scotland,Armadale,KW,14
2028,58.58979461078161,-3.8153799569293483,0,0,Scotland,0,0,0
2029,58.621317114981224,-3.6160767169149577,KW14 7XU,0,Scotland,0,KW,14
2030,58.65255524457301,-3.416489728593353,0,0,Scotland,0,0,0
2031,58.683525487807096,-3.2165101954824915,0,0,Scotland,0,0,0
2032,58.714209820349204,-3.016251056922385,0,0,Scotland,0,0,0
2033,58.1883938540541,-6.8311906917357135,HS2 9LP,0,Scotland,Hacklete,HS,2
2034,58.224040149953005,-6.636752140819576,HS2 9AX,0,Scotland,Carloway,HS,2
2035,58.259413618691845,-6.441999832135685,HS1 2DB,0,Scotland,0,HS,1
2036,58.53286563697543,-4.870711620219618,0,0,Scotland,0,0,0
2037,58.565832315673035,-4.67272080994639,IV27 4QD,0,Scotland,0,IV,27
2038,58.59853621268635,-4.474323570293112,IV27 4AD,0,Scotland,0,IV,27
2039,58.63095831135029,-4.2756317763940865,IV27 4AD,0,Scotland,0,IV,27
2040,58.66311573431072,-4.076537006984105,IV27 4AD,0,Scotland,0,IV,27
2041,58.694989775602615,-3.877151589330925,0,0,Scotland,0,0,0
2042,58.2922196545929,-6.900224521100755,0,0,Scotland,0,0,0
2043,58.32795886185272,-6.705348557097594,HS2 9BJ,0,Scotland,Shawbost,HS,2
2044,58.36342476800153,-6.510155836970832,HS2 0QY,0,Scotland,Barvas,HS,2
2045,58.398626411577254,-6.3145938434061435,0,0,Scotland,0,0,0
2046,58.63759942588952,-4.935231952124396,0,0,Scotland,0,0,0
2047,58.67065419856154,-4.736772831393568,IV27 4AD,0,Scotland,0,IV,27
2048,58.5026936172066,-6.382707378255015,0,0,Scotland,0,0,0
2049,58.53773178601996,-6.186274704322816,0,0,Scotland,0,0,0
2050,59.03072847360435,-3.1968377236894048,KW17 2LD,0,Scotland,Harray,KW,17
2051,59.06139272990029,-2.9947024267088413,0,0,Scotland,0,0,0
2052,59.16692788649775,-3.0551386224525214,KW17 2PS,0,Scotland,0,KW,17
2053,59.30297745177333,-2.9125206036187707,KW17 2DD,0,Scotland,0,KW,17
2054,60.12438423492424,-1.1401125397482377,ZE1 0LU,0,Scotland,0,ZE,1
2055,60.230638810281974,-1.197344508512724,0,0,Scotland,0,0,0
2056,60.33686858666104,-1.254948749820321,ZE2 9LP,0,Scotland,Voe,ZE,2
2057,60.3648078563496,-1.044009540750949,ZE2 9AA,0,Scotland,Symbister,ZE,2
2058,60.47108989086912,-1.101426058370117,ZE2 9BA,0,Scotland,Littlester,ZE,2
2059,60.577350773258495,-1.1592218331351871,0,0,Scotland,0,0,0
2060,60.683586545200974,-1.2173989224300807,0,0,Scotland,0,0,0
2061,60.71147933923781,-1.0043562407870197,ZE2 9BZ,0,Scotland,Cullivoe,ZE,2
2062,60.845438143560955,-0.8484361791472926,0,0,Scotland,0,0,0
2063,61.69510410053059,-6.779160627231558,286,0,Sandoy region,Stra Dmun,0,0
